PostalCode,City,State
0001,OSLO,OSL
0010,OSLO,OSL
0015,OSLO,OSL
0018,OSLO,OSL
0021,OSLO,OSL
0024,OSLO,OSL
0026,OSLO,OSL
0028,OSLO,OSL
0030,OSLO,OSL
0032,OSLO,OSL
0033,OSLO,OSL
0034,OSLO,OSL
0037,OSLO,OSL
0040,OSLO,OSL
0045,OSLO,OSL
0046,OSLO,OSL
0047,OSLO,OSL
0048,OSLO,OSL
0050,OSLO,OSL
0055,OSLO,OSL
0101,OSLO,OSL
0102,OSLO,OSL
0103,OSLO,OSL
0104,OSLO,OSL
0105,OSLO,OSL
0106,OSLO,OSL
0107,OSLO,OSL
0109,OSLO,OSL
0110,OSLO,OSL
0111,OSLO,OSL
0112,OSLO,OSL
0113,OSLO,OSL
0114,OSLO,OSL
0115,OSLO,OSL
0116,OSLO,OSL
0117,OSLO,OSL
0118,OSLO,OSL
0119,OSLO,OSL
0120,OSLO,OSL
0121,OSLO,OSL
0122,OSLO,OSL
0123,OSLO,OSL
0124,OSLO,OSL
0125,OSLO,OSL
0128,OSLO,OSL
0129,OSLO,OSL
0130,OSLO,OSL
0131,OSLO,OSL
0132,OSLO,OSL
0133,OSLO,OSL
0134,OSLO,OSL
0135,OSLO,OSL
0136,OSLO,OSL
0138,OSLO,OSL
0139,OSLO,OSL
0140,OSLO,OSL
0150,OSLO,OSL
0151,OSLO,OSL
0152,OSLO,OSL
0153,OSLO,OSL
0154,OSLO,OSL
0155,OSLO,OSL
0157,OSLO,OSL
0158,OSLO,OSL
0159,OSLO,OSL
0160,OSLO,OSL
0161,OSLO,OSL
0162,OSLO,OSL
0164,OSLO,OSL
0165,OSLO,OSL
0166,OSLO,OSL
0167,OSLO,OSL
0168,OSLO,OSL
0169,OSLO,OSL
0170,OSLO,OSL
0171,OSLO,OSL
0172,OSLO,OSL
0173,OSLO,OSL
0174,OSLO,OSL
0175,OSLO,OSL
0176,OSLO,OSL
0177,OSLO,OSL
0178,OSLO,OSL
0179,OSLO,OSL
0180,OSLO,OSL
0181,OSLO,OSL
0182,OSLO,OSL
0183,OSLO,OSL
0184,OSLO,OSL
0185,OSLO,OSL
0186,OSLO,OSL
0187,OSLO,OSL
0188,OSLO,OSL
0190,OSLO,OSL
0191,OSLO,OSL
0192,OSLO,OSL
0193,OSLO,OSL
0194,OSLO,OSL
0195,OSLO,OSL
0196,OSLO,OSL
0198,OSLO,OSL
0201,OSLO,OSL
0202,OSLO,OSL
0203,OSLO,OSL
0204,OSLO,OSL
0207,OSLO,OSL
0208,OSLO,OSL
0211,OSLO,OSL
0212,OSLO,OSL
0213,OSLO,OSL
0214,OSLO,OSL
0215,OSLO,OSL
0216,OSLO,OSL
0217,OSLO,OSL
0218,OSLO,OSL
0230,OSLO,OSL
0240,OSLO,OSL
0244,OSLO,OSL
0247,OSLO,OSL
0250,OSLO,OSL
0251,OSLO,OSL
0252,OSLO,OSL
0253,OSLO,OSL
0254,OSLO,OSL
0255,OSLO,OSL
0256,OSLO,OSL
0257,OSLO,OSL
0258,OSLO,OSL
0259,OSLO,OSL
0260,OSLO,OSL
0262,OSLO,OSL
0263,OSLO,OSL
0264,OSLO,OSL
0265,OSLO,OSL
0266,OSLO,OSL
0267,OSLO,OSL
0268,OSLO,OSL
0270,OSLO,OSL
0271,OSLO,OSL
0272,OSLO,OSL
0273,OSLO,OSL
0274,OSLO,OSL
0275,OSLO,OSL
0276,OSLO,OSL
0277,OSLO,OSL
0278,OSLO,OSL
0279,OSLO,OSL
0280,OSLO,OSL
0281,OSLO,OSL
0282,OSLO,OSL
0283,OSLO,OSL
0284,OSLO,OSL
0286,OSLO,OSL
0287,OSLO,OSL
0301,OSLO,OSL
0302,OSLO,OSL
0303,OSLO,OSL
0304,OSLO,OSL
0305,OSLO,OSL
0306,OSLO,OSL
0307,OSLO,OSL
0308,OSLO,OSL
0309,OSLO,OSL
0311,OSLO,OSL
0313,OSLO,OSL
0314,OSLO,OSL
0315,OSLO,OSL
0316,OSLO,OSL
0317,OSLO,OSL
0318,OSLO,OSL
0319,OSLO,OSL
0323,OSLO,OSL
0330,OSLO,OSL
0340,OSLO,OSL
0349,OSLO,OSL
0350,OSLO,OSL
0351,OSLO,OSL
0352,OSLO,OSL
0353,OSLO,OSL
0354,OSLO,OSL
0355,OSLO,OSL
0356,OSLO,OSL
0357,OSLO,OSL
0358,OSLO,OSL
0359,OSLO,OSL
0360,OSLO,OSL
0361,OSLO,OSL
0362,OSLO,OSL
0363,OSLO,OSL
0364,OSLO,OSL
0365,OSLO,OSL
0366,OSLO,OSL
0367,OSLO,OSL
0368,OSLO,OSL
0369,OSLO,OSL
0370,OSLO,OSL
0371,OSLO,OSL
0372,OSLO,OSL
0373,OSLO,OSL
0374,OSLO,OSL
0375,OSLO,OSL
0376,OSLO,OSL
0377,OSLO,OSL
0378,OSLO,OSL
0379,OSLO,OSL
0380,OSLO,OSL
0381,OSLO,OSL
0382,OSLO,OSL
0383,OSLO,OSL
0401,OSLO,OSL
0402,OSLO,OSL
0403,OSLO,OSL
0404,OSLO,OSL
0405,OSLO,OSL
0406,OSLO,OSL
0409,OSLO,OSL
0410,OSLO,OSL
0411,OSLO,OSL
0412,OSLO,OSL
0413,OSLO,OSL
0415,OSLO,OSL
0421,OSLO,OSL
0422,OSLO,OSL
0423,OSLO,OSL
0424,OSLO,OSL
0440,OSLO,OSL
0441,OSLO,OSL
0442,OSLO,OSL
0445,OSLO,OSL
0450,OSLO,OSL
0451,OSLO,OSL
0452,OSLO,OSL
0454,OSLO,OSL
0455,OSLO,OSL
0456,OSLO,OSL
0457,OSLO,OSL
0458,OSLO,OSL
0459,OSLO,OSL
0460,OSLO,OSL
0461,OSLO,OSL
0462,OSLO,OSL
0463,OSLO,OSL
0464,OSLO,OSL
0465,OSLO,OSL
0467,OSLO,OSL
0468,OSLO,OSL
0469,OSLO,OSL
0470,OSLO,OSL
0472,OSLO,OSL
0473,OSLO,OSL
0474,OSLO,OSL
0475,OSLO,OSL
0476,OSLO,OSL
0477,OSLO,OSL
0478,OSLO,OSL
0479,OSLO,OSL
0480,OSLO,OSL
0481,OSLO,OSL
0482,OSLO,OSL
0483,OSLO,OSL
0484,OSLO,OSL
0485,OSLO,OSL
0486,OSLO,OSL
0487,OSLO,OSL
0488,OSLO,OSL
0489,OSLO,OSL
0490,OSLO,OSL
0491,OSLO,OSL
0492,OSLO,OSL
0493,OSLO,OSL
0494,OSLO,OSL
0495,OSLO,OSL
0496,OSLO,OSL
0501,OSLO,OSL
0502,OSLO,OSL
0503,OSLO,OSL
0504,OSLO,OSL
0505,OSLO,OSL
0506,OSLO,OSL
0507,OSLO,OSL
0508,OSLO,OSL
0509,OSLO,OSL
0510,OSLO,OSL
0511,OSLO,OSL
0512,OSLO,OSL
0513,OSLO,OSL
0515,OSLO,OSL
0516,OSLO,OSL
0517,OSLO,OSL
0518,OSLO,OSL
0520,OSLO,OSL
0540,OSLO,OSL
0550,OSLO,OSL
0551,OSLO,OSL
0552,OSLO,OSL
0553,OSLO,OSL
0554,OSLO,OSL
0555,OSLO,OSL
0556,OSLO,OSL
0557,OSLO,OSL
0558,OSLO,OSL
0559,OSLO,OSL
0560,OSLO,OSL
0561,OSLO,OSL
0562,OSLO,OSL
0563,OSLO,OSL
0564,OSLO,OSL
0565,OSLO,OSL
0566,OSLO,OSL
0567,OSLO,OSL
0568,OSLO,OSL
0569,OSLO,OSL
0570,OSLO,OSL
0571,OSLO,OSL
0572,OSLO,OSL
0573,OSLO,OSL
0574,OSLO,OSL
0575,OSLO,OSL
0576,OSLO,OSL
0577,OSLO,OSL
0578,OSLO,OSL
0579,OSLO,OSL
0580,OSLO,OSL
0581,OSLO,OSL
0582,OSLO,OSL
0583,OSLO,OSL
0584,OSLO,OSL
0585,OSLO,OSL
0586,OSLO,OSL
0587,OSLO,OSL
0588,OSLO,OSL
0589,OSLO,OSL
0590,OSLO,OSL
0591,OSLO,OSL
0592,OSLO,OSL
0593,OSLO,OSL
0594,OSLO,OSL
0595,OSLO,OSL
0596,OSLO,OSL
0597,OSLO,OSL
0598,OSLO,OSL
0601,OSLO,OSL
0602,OSLO,OSL
0603,OSLO,OSL
0604,OSLO,OSL
0605,OSLO,OSL
0606,OSLO,OSL
0607,OSLO,OSL
0608,OSLO,OSL
0609,OSLO,OSL
0611,OSLO,OSL
0612,OSLO,OSL
0613,OSLO,OSL
0614,OSLO,OSL
0615,OSLO,OSL
0616,OSLO,OSL
0617,OSLO,OSL
0618,OSLO,OSL
0619,OSLO,OSL
0620,OSLO,OSL
0621,OSLO,OSL
0622,OSLO,OSL
0623,OSLO,OSL
0624,OSLO,OSL
0626,OSLO,OSL
0650,OSLO,OSL
0651,OSLO,OSL
0652,OSLO,OSL
0653,OSLO,OSL
0654,OSLO,OSL
0655,OSLO,OSL
0656,OSLO,OSL
0657,OSLO,OSL
0658,OSLO,OSL
0659,OSLO,OSL
0660,OSLO,OSL
0661,OSLO,OSL
0662,OSLO,OSL
0663,OSLO,OSL
0664,OSLO,OSL
0665,OSLO,OSL
0666,OSLO,OSL
0667,OSLO,OSL
0668,OSLO,OSL
0669,OSLO,OSL
0670,OSLO,OSL
0671,OSLO,OSL
0672,OSLO,OSL
0673,OSLO,OSL
0674,OSLO,OSL
0675,OSLO,OSL
0676,OSLO,OSL
0677,OSLO,OSL
0678,OSLO,OSL
0679,OSLO,OSL
0680,OSLO,OSL
0681,OSLO,OSL
0682,OSLO,OSL
0683,OSLO,OSL
0684,OSLO,OSL
0685,OSLO,OSL
0686,OSLO,OSL
0687,OSLO,OSL
0688,OSLO,OSL
0689,OSLO,OSL
0690,OSLO,OSL
0691,OSLO,OSL
0692,OSLO,OSL
0693,OSLO,OSL
0694,OSLO,OSL
0701,OSLO,OSL
0702,OSLO,OSL
0705,OSLO,OSL
0710,OSLO,OSL
0712,OSLO,OSL
0750,OSLO,OSL
0751,OSLO,OSL
0752,OSLO,OSL
0753,OSLO,OSL
0754,OSLO,OSL
0755,OSLO,OSL
0756,OSLO,OSL
0757,OSLO,OSL
0758,OSLO,OSL
0760,OSLO,OSL
0763,OSLO,OSL
0764,OSLO,OSL
0765,OSLO,OSL
0766,OSLO,OSL
0767,OSLO,OSL
0768,OSLO,OSL
0770,OSLO,OSL
0771,OSLO,OSL
0772,OSLO,OSL
0773,OSLO,OSL
0774,OSLO,OSL
0775,OSLO,OSL
0776,OSLO,OSL
0777,OSLO,OSL
0778,OSLO,OSL
0779,OSLO,OSL
0781,OSLO,OSL
0782,OSLO,OSL
0783,OSLO,OSL
0784,OSLO,OSL
0785,OSLO,OSL
0786,OSLO,OSL
0787,OSLO,OSL
0788,OSLO,OSL
0789,OSLO,OSL
0790,OSLO,OSL
0791,OSLO,OSL
0801,OSLO,OSL
0805,OSLO,OSL
0806,OSLO,OSL
0807,OSLO,OSL
0840,OSLO,OSL
0850,OSLO,OSL
0851,OSLO,OSL
0852,OSLO,OSL
0853,OSLO,OSL
0854,OSLO,OSL
0855,OSLO,OSL
0856,OSLO,OSL
0857,OSLO,OSL
0858,OSLO,OSL
0860,OSLO,OSL
0861,OSLO,OSL
0862,OSLO,OSL
0863,OSLO,OSL
0864,OSLO,OSL
0870,OSLO,OSL
0871,OSLO,OSL
0872,OSLO,OSL
0873,OSLO,OSL
0874,OSLO,OSL
0875,OSLO,OSL
0876,OSLO,OSL
0877,OSLO,OSL
0880,OSLO,OSL
0881,OSLO,OSL
0882,OSLO,OSL
0883,OSLO,OSL
0884,OSLO,OSL
0890,OSLO,OSL
0891,OSLO,OSL
0901,OSLO,OSL
0902,OSLO,OSL
0903,OSLO,OSL
0904,OSLO,OSL
0905,OSLO,OSL
0907,OSLO,OSL
0908,OSLO,OSL
0913,OSLO,OSL
0914,OSLO,OSL
0915,OSLO,OSL
0950,OSLO,OSL
0951,OSLO,OSL
0952,OSLO,OSL
0953,OSLO,OSL
0954,OSLO,OSL
0955,OSLO,OSL
0956,OSLO,OSL
0957,OSLO,OSL
0958,OSLO,OSL
0959,OSLO,OSL
0960,OSLO,OSL
0962,OSLO,OSL
0963,OSLO,OSL
0964,OSLO,OSL
0968,OSLO,OSL
0969,OSLO,OSL
0970,OSLO,OSL
0971,OSLO,OSL
0972,OSLO,OSL
0973,OSLO,OSL
0975,OSLO,OSL
0976,OSLO,OSL
0977,OSLO,OSL
0978,OSLO,OSL
0979,OSLO,OSL
0980,OSLO,OSL
0981,OSLO,OSL
0982,OSLO,OSL
0983,OSLO,OSL
0984,OSLO,OSL
0985,OSLO,OSL
0986,OSLO,OSL
0987,OSLO,OSL
0988,OSLO,OSL
1001,OSLO,OSL
1003,OSLO,OSL
1005,OSLO,OSL
1006,OSLO,OSL
1007,OSLO,OSL
1008,OSLO,OSL
1009,OSLO,OSL
1011,OSLO,OSL
1051,OSLO,OSL
1052,OSLO,OSL
1053,OSLO,OSL
1054,OSLO,OSL
1055,OSLO,OSL
1056,OSLO,OSL
1061,OSLO,OSL
1062,OSLO,OSL
1063,OSLO,OSL
1064,OSLO,OSL
1065,OSLO,OSL
1067,OSLO,OSL
1068,OSLO,OSL
1069,OSLO,OSL
1071,OSLO,OSL
1081,OSLO,OSL
1083,OSLO,OSL
1084,OSLO,OSL
1086,OSLO,OSL
1087,OSLO,OSL
1088,OSLO,OSL
1089,OSLO,OSL
1101,OSLO,OSL
1102,OSLO,OSL
1108,OSLO,OSL
1109,OSLO,OSL
1112,OSLO,OSL
1150,OSLO,OSL
1151,OSLO,OSL
1152,OSLO,OSL
1153,OSLO,OSL
1154,OSLO,OSL
1155,OSLO,OSL
1156,OSLO,OSL
1157,OSLO,OSL
1158,OSLO,OSL
1160,OSLO,OSL
1161,OSLO,OSL
1162,OSLO,OSL
1163,OSLO,OSL
1164,OSLO,OSL
1165,OSLO,OSL
1166,OSLO,OSL
1167,OSLO,OSL
1168,OSLO,OSL
1169,OSLO,OSL
1170,OSLO,OSL
1172,OSLO,OSL
1176,OSLO,OSL
1177,OSLO,OSL
1178,OSLO,OSL
1179,OSLO,OSL
1181,OSLO,OSL
1182,OSLO,OSL
1184,OSLO,OSL
1185,OSLO,OSL
1187,OSLO,OSL
1188,OSLO,OSL
1189,OSLO,OSL
1201,OSLO,OSL
1203,OSLO,OSL
1204,OSLO,OSL
1205,OSLO,OSL
1207,OSLO,OSL
1214,OSLO,OSL
1215,OSLO,OSL
1250,OSLO,OSL
1251,OSLO,OSL
1252,OSLO,OSL
1253,OSLO,OSL
1254,OSLO,OSL
1255,OSLO,OSL
1256,OSLO,OSL
1257,OSLO,OSL
1258,OSLO,OSL
1259,OSLO,OSL
1262,OSLO,OSL
1263,OSLO,OSL
1266,OSLO,OSL
1270,OSLO,OSL
1271,OSLO,OSL
1272,OSLO,OSL
1273,OSLO,OSL
1274,OSLO,OSL
1275,OSLO,OSL
1278,OSLO,OSL
1279,OSLO,OSL
1281,OSLO,OSL
1283,OSLO,OSL
1284,OSLO,OSL
1285,OSLO,OSL
1286,OSLO,OSL
1290,OSLO,OSL
1291,OSLO,OSL
1294,OSLO,OSL
1295,OSLO,OSL
1300,SANDVIKA,AK
1301,SANDVIKA,AK
1302,SANDVIKA,AK
1303,SANDVIKA,AK
1304,SANDVIKA,AK
1305,HASLUM,AK
1306,SANDVIKA,AK
1307,FORNEBU,AK
1308,JAR,AK
1309,RUD,AK
1311,HØVIKODDEN,AK
1312,SLEPENDEN,AK
1313,VØYENENGA,AK
1314,VØYENENGA,AK
1316,EIKSMARKA,AK
1317,BÆRUMS VERK,AK
1318,BEKKESTUA,AK
1319,BEKKESTUA,AK
1321,STABEKK,AK
1322,HØVIK,AK
1323,HØVIK,AK
1324,LYSAKER,AK
1325,LYSAKER,AK
1326,LYSAKER,AK
1327,LYSAKER,AK
1328,HØVIK,AK
1329,LOMMEDALEN,AK
1330,FORNEBU,AK
1331,FORNEBU,AK
1332,ØSTERÅS,AK
1333,KOLSÅS,AK
1334,RYKKINN,AK
1335,SNARØYA,AK
1336,SANDVIKA,AK
1337,SANDVIKA,AK
1338,SANDVIKA,AK
1339,VØYENENGA,AK
1340,SKUI,AK
1341,SLEPENDEN,AK
1342,GJETTUM,AK
1344,HASLUM,AK
1346,GJETTUM,AK
1348,RYKKINN,AK
1349,RYKKINN,AK
1350,LOMMEDALEN,AK
1351,RUD,AK
1352,KOLSÅS,AK
1353,BÆRUMS VERK,AK
1354,BÆRUMS VERK,AK
1356,BEKKESTUA,AK
1357,BEKKESTUA,AK
1358,JAR,AK
1359,EIKSMARKA,AK
1360,FORNEBU,AK
1361,ØSTERÅS,AK
1362,HOSLE,AK
1363,HØVIK,AK
1364,FORNEBU,AK
1365,BLOMMENHOLM,AK
1366,LYSAKER,AK
1367,SNARØYA,AK
1368,STABEKK,AK
1369,STABEKK,AK
1371,ASKER,AK
1372,ASKER,AK
1373,ASKER,AK
1375,BILLINGSTAD,AK
1376,BILLINGSTAD,AK
1377,BILLINGSTAD,AK
1378,NESBRU,AK
1379,NESBRU,AK
1380,HEGGEDAL,AK
1381,VETTRE,AK
1383,ASKER,AK
1384,ASKER,AK
1385,ASKER,AK
1386,ASKER,AK
1387,ASKER,AK
1388,BORGEN,AK
1389,HEGGEDAL,AK
1390,VOLLEN,AK
1391,VOLLEN,AK
1392,VETTRE,AK
1393,VOLLEN,AK
1394,NESBRU,AK
1395,HVALSTAD,AK
1396,BILLINGSTAD,AK
1397,NESØYA,AK
1399,ASKER,AK
1400,SKI,AK
1401,SKI,AK
1402,SKI,AK
1403,LANGHUS,AK
1404,SIGGERUD,AK
1405,LANGHUS,AK
1406,SKI,AK
1407,VINTERBRO,AK
1408,KRÅKSTAD,AK
1409,SKOTBU,AK
1410,KOLBOTN,AK
1411,KOLBOTN,AK
1412,SOFIEMYR,AK
1413,TÅRNÅSEN,AK
1414,TROLLÅSEN,AK
1415,OPPEGÅRD,AK
1416,OPPEGÅRD,AK
1417,SOFIEMYR,AK
1418,KOLBOTN,AK
1419,OPPEGÅRD,AK
1420,SVARTSKOG,AK
1421,TROLLÅSEN,AK
1422,SIGGERUD,AK
1423,SKI,AK
1424,SKI,AK
1425,SKI,AK
1429,VINTERBRO,AK
1430,ÅS,AK
1431,ÅS,AK
1432,ÅS,AK
1433,ÅS,AK
1434,ÅS,AK
1435,ÅS,AK
1440,DRØBAK,AK
1441,DRØBAK,AK
1442,DRØBAK,AK
1443,DRØBAK,AK
1444,DRØBAK,AK
1445,DRØBAK,AK
1446,DRØBAK,AK
1447,DRØBAK,AK
1448,DRØBAK,AK
1449,DRØBAK,AK
1450,NESODDTANGEN,AK
1451,NESODDTANGEN,AK
1452,NESODDTANGEN,AK
1453,BJØRNEMYR,AK
1454,FAGERSTRAND,AK
1455,NORDRE FROGN,AK
1456,NESODDTANGEN,AK
1457,FAGERSTRAND,AK
1458,FJELLSTRAND,AK
1459,NESODDEN,AK
1461,LØRENSKOG,AK
1462,FJELLHAMAR,AK
1463,FJELLHAMAR,AK
1464,FJELLHAMAR,AK
1465,STRØMMEN,AK
1466,STRØMMEN,AK
1467,STRØMMEN,AK
1468,FINSTADJORDET,AK
1469,RASTA,AK
1470,LØRENSKOG,AK
1471,LØRENSKOG,AK
1472,FJELLHAMAR,AK
1473,LØRENSKOG,AK
1474,LØRENSKOG,AK
1475,FINSTADJORDET,AK
1476,RASTA,AK
1477,FJELLHAMAR,AK
1478,LØRENSKOG,AK
1479,KURLAND,AK
1480,SLATTUM,AK
1481,HAGAN,AK
1482,NITTEDAL,AK
1483,HAGAN,AK
1484,HAKADAL,AK
1485,HAKADAL,AK
1486,NITTEDAL,AK
1487,HAKADAL,AK
1488,HAKADAL,AK
1501,MOSS,OF
1502,MOSS,OF
1503,MOSS,OF
1504,MOSS,OF
1506,MOSS,OF
1508,MOSS,OF
1509,MOSS,OF
1510,MOSS,OF
1511,MOSS,OF
1512,MOSS,OF
1513,MOSS,OF
1514,MOSS,OF
1515,MOSS,OF
1516,MOSS,OF
1517,MOSS,OF
1518,MOSS,OF
1519,MOSS,OF
1520,MOSS,OF
1521,MOSS,OF
1522,MOSS,OF
1523,MOSS,OF
1524,MOSS,OF
1525,MOSS,OF
1526,MOSS,OF
1528,MOSS,OF
1529,MOSS,OF
1530,MOSS,OF
1531,MOSS,OF
1532,MOSS,OF
1533,MOSS,OF
1534,MOSS,OF
1535,MOSS,OF
1536,MOSS,OF
1537,MOSS,OF
1538,MOSS,OF
1539,MOSS,OF
1540,VESTBY,AK
1541,VESTBY,AK
1542,VESTBY,AK
1543,VESTBY,AK
1544,VESTBY,AK
1545,HVITSTEN,AK
1550,HØLEN,AK
1553,SON,AK
1554,SON,AK
1555,SON,AK
1556,SON,AK
1560,LARKOLLEN,OF
1561,LARKOLLEN,OF
1570,DILLING,OF
1580,RYGGE,OF
1581,RYGGE,OF
1590,RYGGE,OF
1591,SPERREBOTN,OF
1592,VÅLER I ØSTFOLD,OF
1593,SVINNDAL,OF
1594,VÅLER I ØSTFOLD,OF
1596,MOSS,OF
1597,MOSS,OF
1598,MOSS,OF
1599,MOSS,OF
1601,FREDRIKSTAD,OF
1602,FREDRIKSTAD,OF
1604,FREDRIKSTAD,OF
1605,FREDRIKSTAD,OF
1606,FREDRIKSTAD,OF
1607,FREDRIKSTAD,OF
1608,FREDRIKSTAD,OF
1609,FREDRIKSTAD,OF
1610,FREDRIKSTAD,OF
1612,FREDRIKSTAD,OF
1613,FREDRIKSTAD,OF
1614,FREDRIKSTAD,OF
1615,FREDRIKSTAD,OF
1616,FREDRIKSTAD,OF
1617,FREDRIKSTAD,OF
1618,FREDRIKSTAD,OF
1619,FREDRIKSTAD,OF
1620,GRESSVIK,OF
1621,GRESSVIK,OF
1622,GRESSVIK,OF
1623,GRESSVIK,OF
1624,GRESSVIK,OF
1625,MANSTAD,OF
1626,MANSTAD,OF
1628,ENGELSVIKEN,OF
1629,GAMLE FREDRIKSTAD,OF
1630,GAMLE FREDRIKSTAD,OF
1632,GAMLE FREDRIKSTAD,OF
1633,GAMLE FREDRIKSTAD,OF
1634,GAMLE FREDRIKSTAD,OF
1636,GAMLE FREDRIKSTAD,OF
1637,GAMLE FREDRIKSTAD,OF
1638,GAMLE FREDRIKSTAD,OF
1639,GAMLE FREDRIKSTAD,OF
1640,RÅDE,OF
1641,RÅDE,OF
1642,SALTNES,OF
1643,RÅDE,OF
1650,SELLEBAKK,OF
1651,SELLEBAKK,OF
1653,SELLEBAKK,OF
1654,SELLEBAKK,OF
1655,SELLEBAKK,OF
1657,TORP,OF
1658,TORP,OF
1659,TORP,OF
1661,ROLVSØY,OF
1662,ROLVSØY,OF
1663,ROLVSØY,OF
1664,ROLVSØY,OF
1665,ROLVSØY,OF
1666,ROLVSØY,OF
1667,ROLVSØY,OF
1670,KRÅKERØY,OF
1671,KRÅKERØY,OF
1672,KRÅKERØY,OF
1673,KRÅKERØY,OF
1675,KRÅKERØY,OF
1676,KRÅKERØY,OF
1678,KRÅKERØY,OF
1679,KRÅKERØY,OF
1680,SKJÆRHALDEN,OF
1682,SKJÆRHALDEN,OF
1683,VESTERØY,OF
1684,VESTERØY,OF
1690,HERFØL,OF
1692,NEDGÅRDEN,OF
1701,SARPSBORG,OF
1702,SARPSBORG,OF
1703,SARPSBORG,OF
1704,SARPSBORG,OF
1705,SARPSBORG,OF
1706,SARPSBORG,OF
1707,SARPSBORG,OF
1708,SARPSBORG,OF
1709,SARPSBORG,OF
1710,SARPSBORG,OF
1711,SARPSBORG,OF
1712,GRÅLUM,OF
1713,GRÅLUM,OF
1714,GRÅLUM,OF
1715,YVEN,OF
1718,GREÅKER,OF
1719,GREÅKER,OF
1720,GREÅKER,OF
1721,SARPSBORG,OF
1722,SARPSBORG,OF
1723,SARPSBORG,OF
1724,SARPSBORG,OF
1725,SARPSBORG,OF
1726,SARPSBORG,OF
1727,SARPSBORG,OF
1730,ISE,OF
1733,HAFSLUNDSØY,OF
1734,HAFSLUNDSØY,OF
1735,VARTEIG,OF
1738,BORGENHAUGEN,OF
1739,BORGENHAUGEN,OF
1740,BORGENHAUGEN,OF
1742,KLAVESTADHAUGEN,OF
1743,KLAVESTADHAUGEN,OF
1745,SKJEBERG,OF
1746,SKJEBERG,OF
1747,SKJEBERG,OF
1751,HALDEN,OF
1752,HALDEN,OF
1753,HALDEN,OF
1754,HALDEN,OF
1757,HALDEN,OF
1759,HALDEN,OF
1760,HALDEN,OF
1761,HALDEN,OF
1762,HALDEN,OF
1763,HALDEN,OF
1764,HALDEN,OF
1765,HALDEN,OF
1766,HALDEN,OF
1767,HALDEN,OF
1768,HALDEN,OF
1769,HALDEN,OF
1771,HALDEN,OF
1772,HALDEN,OF
1776,HALDEN,OF
1777,HALDEN,OF
1778,HALDEN,OF
1779,HALDEN,OF
1781,HALDEN,OF
1782,HALDEN,OF
1783,HALDEN,OF
1784,HALDEN,OF
1785,HALDEN,OF
1786,HALDEN,OF
1787,HALDEN,OF
1788,HALDEN,OF
1789,BERG I ØSTFOLD,OF
1790,TISTEDAL,OF
1791,TISTEDAL,OF
1792,TISTEDAL,OF
1793,TISTEDAL,OF
1794,SPONVIKA,OF
1796,KORNSJØ,OF
1798,AREMARK,OF
1799,AREMARK,OF
1801,ASKIM,OF
1802,ASKIM,OF
1803,ASKIM,OF
1804,SPYDEBERG,OF
1805,TOMTER,OF
1806,SKIPTVET,OF
1807,ASKIM,OF
1808,ASKIM,OF
1809,ASKIM,OF
1811,ASKIM,OF
1812,ASKIM,OF
1813,ASKIM,OF
1814,ASKIM,OF
1815,ASKIM,OF
1816,SKIPTVET,OF
1820,SPYDEBERG,OF
1821,SPYDEBERG,OF
1823,KNAPSTAD,OF
1825,TOMTER,OF
1827,HOBØL,OF
1828,HOBØL,OF
1830,ASKIM,OF
1831,ASKIM,OF
1832,ASKIM,OF
1833,ASKIM,OF
1850,MYSEN,OF
1851,MYSEN,OF
1852,MYSEN,OF
1859,SLITU,OF
1860,TRØGSTAD,OF
1861,TRØGSTAD,OF
1866,BÅSTAD,OF
1867,BÅSTAD,OF
1870,ØRJE,OF
1871,ØRJE,OF
1875,OTTEID,OF
1878,HÆRLAND,OF
1880,EIDSBERG,OF
1890,RAKKESTAD,OF
1891,RAKKESTAD,OF
1892,DEGERNES,OF
1893,DEGERNES,OF
1894,RAKKESTAD,OF
1900,FETSUND,AK
1901,FETSUND,AK
1903,GAN,AK
1910,ENEBAKKNESET,AK
1911,FLATEBY,AK
1912,ENEBAKK,AK
1914,YTRE ENEBAKK,AK
1916,FLATEBY,AK
1917,YTRE ENEBAKK,AK
1920,SØRUMSAND,AK
1921,SØRUMSAND,AK
1923,SØRUM,AK
1924,SØRUM,AK
1925,BLAKER,AK
1926,BLAKER,AK
1927,RÅNÅSFOSS,AK
1928,AULI,AK
1929,AULI,AK
1930,AURSKOG,AK
1931,AURSKOG,AK
1940,BJØRKELANGEN,AK
1941,BJØRKELANGEN,AK
1950,RØMSKOG,AK
1951,RØMSKOG,AK
1954,SETSKOG,AK
1960,LØKEN,AK
1961,LØKEN,AK
1963,FOSSER,AK
1970,HEMNES,AK
1971,HEMNES,AK
2000,LILLESTRØM,AK
2001,LILLESTRØM,AK
2003,LILLESTRØM,AK
2004,LILLESTRØM,AK
2005,RÆLINGEN,AK
2006,LØVENSTAD,AK
2007,KJELLER,AK
2008,FJERDINGBY,AK
2009,NORDBY,AK
2010,STRØMMEN,AK
2011,STRØMMEN,AK
2012,LILLESTRØM,AK
2013,SKJETTEN,AK
2014,BLYSTADLIA,AK
2015,LEIRSUND,AK
2016,FROGNER,AK
2017,FROGNER,AK
2018,LØVENSTAD,AK
2019,SKEDSMOKORSET,AK
2020,SKEDSMOKORSET,AK
2021,SKEDSMOKORSET,AK
2022,GJERDRUM,AK
2023,SKEDSMOKORSET,AK
2024,GJERDRUM,AK
2025,FJERDINGBY,AK
2026,SKJETTEN,AK
2027,KJELLER,AK
2028,LILLESTRØM,AK
2029,RÆLINGEN,AK
2030,NANNESTAD,AK
2031,NANNESTAD,AK
2032,MAURA,AK
2033,ÅSGREINA,AK
2034,HOLTER,AK
2035,HOLTER,AK
2036,MAURA,AK
2040,KLØFTA,AK
2041,KLØFTA,AK
2050,JESSHEIM,AK
2051,JESSHEIM,AK
2052,JESSHEIM,AK
2053,JESSHEIM,AK
2054,MOGREINA,AK
2055,NORDKISA,AK
2056,ALGARHEIM,AK
2057,JESSHEIM,AK
2058,SESSVOLLMOEN,AK
2060,GARDERMOEN,AK
2061,GARDERMOEN,AK
2062,JESSHEIM,AK
2063,JESSHEIM,AK
2066,JESSHEIM,AK
2067,JESSHEIM,AK
2068,JESSHEIM,AK
2069,JESSHEIM,AK
2070,RÅHOLT,AK
2071,RÅHOLT,AK
2072,DAL,AK
2073,BØN,AK
2074,EIDSVOLL VERK,AK
2076,DAL,AK
2080,EIDSVOLL,AK
2081,EIDSVOLL,AK
2090,HURDAL,AK
2091,HURDAL,AK
2092,MINNESUND,AK
2093,FEIRING,AK
2094,MINNESUND,AK
2100,SKARNES,IN
2101,SKARNES,IN
2110,SLÅSTAD,IN
2114,DISENÅ,IN
2116,SANDER,IN
2120,SAGSTUA,IN
2121,SAGSTUA,IN
2123,BRUVOLL,IN
2130,KNAPPER,IN
2132,GARDVIK,IN
2133,GARDVIK,IN
2134,AUSTVATN,IN
2150,ÅRNES,AK
2151,ÅRNES,AK
2160,VORMSUND,AK
2161,VORMSUND,AK
2162,BRÅRUD,AK
2163,SKOGBYGDA,AK
2164,SKOGBYGDA,AK
2165,HVAM,AK
2166,OPPAKER,AK
2167,HVAM,AK
2170,FENSTAD,AK
2201,KONGSVINGER,IN
2202,KONGSVINGER,IN
2203,KONGSVINGER,IN
2204,KONGSVINGER,IN
2205,KONGSVINGER,IN
2206,KONGSVINGER,IN
2207,KONGSVINGER,IN
2208,KONGSVINGER,IN
2209,KONGSVINGER,IN
2210,GRANLI,IN
2211,KONGSVINGER,IN
2212,KONGSVINGER,IN
2213,KONGSVINGER,IN
2214,KONGSVINGER,IN
2215,ROVERUD,IN
2216,ROVERUD,IN
2217,HOKKÅSEN,IN
2218,LUNDERSÆTER,IN
2219,BRANDVAL,IN
2220,ÅBOGEN,IN
2223,GALTERUD,IN
2224,AUSTMARKA,IN
2225,KONGSVINGER,IN
2226,KONGSVINGER,IN
2227,AUSTMARKA,IN
2230,SKOTTERUD,IN
2231,SKOTTERUD,IN
2232,TOBØL,IN
2233,VESTMARKA,IN
2235,MATRAND,IN
2240,MAGNOR,IN
2241,MAGNOR,IN
2251,GRUE FINNSKOG,IN
2256,GRUE FINNSKOG,IN
2260,KIRKENÆR,IN
2261,KIRKENÆR,IN
2264,GRINDER,IN
2265,NAMNÅ,IN
2266,ARNEBERG,IN
2270,FLISA,IN
2271,FLISA,IN
2280,GJESÅSEN,IN
2283,ÅSNES FINNSKOG,IN
2301,HAMAR,IN
2302,HAMAR,IN
2303,HAMAR,IN
2304,HAMAR,IN
2305,HAMAR,IN
2306,HAMAR,IN
2307,HAMAR,IN
2308,HAMAR,IN
2309,HAMAR,IN
2311,HAMAR,IN
2312,OTTESTAD,IN
2313,OTTESTAD,IN
2314,OTTESTAD,IN
2315,HAMAR,IN
2316,HAMAR,IN
2317,HAMAR,IN
2318,HAMAR,IN
2319,HAMAR,IN
2320,FURNES,IN
2321,HAMAR,IN
2322,RIDABU,IN
2323,INGEBERG,IN
2324,VANG PÅ HEDMARKEN,IN
2325,HAMAR,IN
2326,HAMAR,IN
2327,FURNES,IN
2328,RIDABU,IN
2329,VANG PÅ HEDMARKEN,IN
2330,VALLSET,IN
2331,VALLSET,IN
2332,ÅSVANG,IN
2333,ROMEDAL,IN
2334,ROMEDAL,IN
2335,STANGE,IN
2336,STANGE,IN
2337,TANGEN,IN
2338,ESPA,IN
2339,TANGEN,IN
2340,LØTEN,IN
2341,LØTEN,IN
2344,ILSENG,IN
2345,ÅDALSBRUK,IN
2346,ILSENG,IN
2350,NES PÅ HEDMARKEN,IN
2351,NES PÅ HEDMARKEN,IN
2353,STAVSJØ,IN
2355,GAUPEN,IN
2360,RUDSHØGDA,IN
2361,RUDSHØGDA,IN
2364,NÆROSET,IN
2365,ÅSMARKA,IN
2372,BRØTTUM,IN
2373,BRØTTUM,IN
2380,BRUMUNDDAL,IN
2381,BRUMUNDDAL,IN
2382,BRUMUNDDAL,IN
2383,BRUMUNDDAL,IN
2384,BRUMUNDDAL,IN
2385,BRUMUNDDAL,IN
2386,BRUMUNDDAL,IN
2387,BRUMUNDDAL,IN
2388,BRUMUNDDAL,IN
2389,BRUMUNDDAL,IN
2390,MOELV,IN
2391,MOELV,IN
2401,ELVERUM,IN
2402,ELVERUM,IN
2403,ELVERUM,IN
2405,ELVERUM,IN
2406,ELVERUM,IN
2407,ELVERUM,IN
2408,ELVERUM,IN
2409,ELVERUM,IN
2410,HERNES,IN
2411,ELVERUM,IN
2412,SØRSKOGBYGDA,IN
2413,ELVERUM,IN
2414,ELVERUM,IN
2415,HERADSBYGD,IN
2416,JØMNA,IN
2417,ELVERUM,IN
2418,ELVERUM,IN
2419,ELVERUM,IN
2420,TRYSIL,IN
2421,TRYSIL,IN
2422,NYBERGSUND,IN
2423,ØSTBY,IN
2424,ØSTBY,IN
2425,LJØRDALEN,IN
2426,LJØRDALEN,IN
2427,PLASSEN,IN
2428,SØRE OSEN,IN
2429,TØRBERGET,IN
2430,JORDET,IN
2432,SLETTÅS,IN
2434,BRASKEREIDFOSS,IN
2435,BRASKEREIDFOSS,IN
2436,VÅLER I SOLØR,IN
2437,HASLEMOEN,IN
2438,GRAVBERGET,IN
2440,ENGERDAL,IN
2441,ENGERDAL,IN
2442,HERADSBYGD,IN
2443,DREVSJØ,IN
2444,DREVSJØ,IN
2446,ELGÅ,IN
2447,SØRE OSEN,IN
2448,SØMÅDALEN,IN
2450,RENA,IN
2451,RENA,IN
2460,OSEN,IN
2461,OSEN,IN
2476,ATNA,IN
2477,SOLLIA,IN
2478,HANESTAD,IN
2480,KOPPANG,IN
2481,KOPPANG,IN
2484,RENDALEN,IN
2485,RENDALEN,IN
2486,RENDALEN,IN
2487,RENDALEN,IN
2488,RENDALEN,IN
2500,TYNSET,IN
2501,TYNSET,IN
2510,TYLLDALEN,IN
2512,KVIKNE,IN
2540,TOLGA,IN
2541,TOLGA,IN
2542,VINGELEN,IN
2544,ØVERSJØDALEN,IN
2550,OS I ØSTERDALEN,IN
2551,OS I ØSTERDALEN,IN
2552,DALSBYGDA,IN
2555,TUFSINGDALEN,IN
2560,ALVDAL,IN
2561,ALVDAL,IN
2580,FOLLDAL,IN
2581,FOLLDAL,IN
2582,GRIMSBU,IN
2584,DALHOLEN,IN
2601,LILLEHAMMER,IN
2602,LILLEHAMMER,IN
2603,LILLEHAMMER,IN
2604,LILLEHAMMER,IN
2605,LILLEHAMMER,IN
2606,LILLEHAMMER,IN
2607,VINGROM,IN
2608,LILLEHAMMER,IN
2609,LILLEHAMMER,IN
2610,MESNALI,IN
2611,LILLEHAMMER,IN
2612,SJUSJØEN,IN
2613,LILLEHAMMER,IN
2614,LILLEHAMMER,IN
2615,LILLEHAMMER,IN
2616,LISMARKA,IN
2617,LILLEHAMMER,IN
2618,LILLEHAMMER,IN
2619,LILLEHAMMER,IN
2620,MESNALI,IN
2621,VINGROM,IN
2622,LILLEHAMMER,IN
2623,LILLEHAMMER,IN
2624,LILLEHAMMER,IN
2625,FÅBERG,IN
2626,LILLEHAMMER,IN
2627,FÅBERG,IN
2628,SJUSJØEN,IN
2629,LILLEHAMMER,IN
2630,RINGEBU,IN
2631,RINGEBU,IN
2632,VENABYGD,IN
2633,FÅVANG,IN
2634,FÅVANG,IN
2635,TRETTEN,IN
2636,ØYER,IN
2637,ØYER,IN
2638,TRETTEN,IN
2639,VINSTRA,IN
2640,VINSTRA,IN
2641,KVAM,IN
2642,KVAM,IN
2643,SKÅBU,IN
2644,SKÅBU,IN
2645,SØR-FRON,IN
2646,GÅLÅ,IN
2647,SØR-FRON,IN
2648,SØR-FRON,IN
2649,ØSTRE GAUSDAL,IN
2651,ØSTRE GAUSDAL,IN
2652,SVINGVOLL,IN
2653,VESTRE GAUSDAL,IN
2654,VESTRE GAUSDAL,IN
2656,FOLLEBU,IN
2657,SVATSUM,IN
2658,ESPEDALEN,IN
2659,DOMBÅS,IN
2660,DOMBÅS,IN
2661,HJERKINN,IN
2662,DOVRE,IN
2663,DOVRESKOGEN,IN
2664,DOVRE,IN
2665,LESJA,IN
2666,LORA,IN
2667,LESJAVERK,IN
2668,LESJASKOG,IN
2669,BJORLI,IN
2670,OTTA,IN
2671,LESJA,IN
2672,SEL,IN
2673,HØVRINGEN,IN
2674,MYSUSÆTER,IN
2675,OTTA,IN
2676,HEIDAL,IN
2677,NEDRE HEIDAL,IN
2678,SEL,IN
2680,VÅGÅ,IN
2681,LALM,IN
2682,LALM,IN
2683,TESSANDEN,IN
2684,VÅGÅ,IN
2685,GARMO,IN
2686,LOM,IN
2687,BØVERDALEN,IN
2688,LOM,IN
2690,SKJÅK,IN
2693,NORDBERG,IN
2694,SKJÅK,IN
2695,GROTLI,IN
2711,GRAN,IN
2712,BRANDBU,IN
2713,ROA,AK
2714,JAREN,IN
2715,LUNNER,AK
2716,HARESTUA,AK
2717,GRUA,AK
2718,BRANDBU,IN
2720,GRINDVOLL,AK
2730,LUNNER,AK
2740,ROA,AK
2742,GRUA,AK
2743,HARESTUA,AK
2750,GRAN,IN
2760,BRANDBU,IN
2770,JAREN,IN
2801,GJØVIK,IN
2802,GJØVIK,IN
2803,GJØVIK,IN
2804,GJØVIK,IN
2805,GJØVIK,IN
2806,GJØVIK,IN
2807,HUNNDALEN,IN
2808,GJØVIK,IN
2810,GJØVIK,IN
2811,HUNNDALEN,IN
2812,GJØVIK,IN
2815,GJØVIK,IN
2816,GJØVIK,IN
2817,GJØVIK,IN
2818,GJØVIK,IN
2819,GJØVIK,IN
2820,NORDRE TOTEN,IN
2821,GJØVIK,IN
2822,BYBRUA,IN
2825,GJØVIK,IN
2827,HUNNDALEN,IN
2830,RAUFOSS,IN
2831,RAUFOSS,IN
2832,BIRI,IN
2833,RAUFOSS,IN
2834,RAUFOSS,IN
2835,RAUFOSS,IN
2836,BIRI,IN
2837,BIRISTRAND,IN
2838,SNERTINGDAL,IN
2839,ØVRE SNERTINGDAL,IN
2840,REINSVOLL,IN
2841,SNERTINGDAL,IN
2843,EINA,IN
2844,KOLBU,IN
2845,BØVERBRU,IN
2846,BØVERBRU,IN
2847,KOLBU,IN
2848,SKREIA,IN
2849,KAPP,IN
2850,LENA,IN
2851,LENA,IN
2853,REINSVOLL,IN
2854,EINA,IN
2857,SKREIA,IN
2858,KAPP,IN
2860,HOV,IN
2861,LANDÅSBYGDA,IN
2862,FLUBERG,IN
2863,VESTSIDA,IN
2864,FALL,IN
2866,ENGER,IN
2867,HOV,IN
2870,DOKKA,IN
2879,ODNES,IN
2880,NORD-TORPA,IN
2881,AUST-TORPA,IN
2882,DOKKA,IN
2890,ETNEDAL,IN
2893,ETNEDAL,IN
2900,FAGERNES,IN
2901,FAGERNES,IN
2907,LEIRA I VALDRES,IN
2909,AURDAL,IN
2910,AURDAL,IN
2917,SKRAUTVÅL,IN
2918,ULNES,IN
2920,LEIRA I VALDRES,IN
2923,TISLEIDALEN,IN
2929,BAGN,IN
2930,BAGN,IN
2933,REINLI,IN
2936,BEGNADALEN,IN
2937,BEGNA,IN
2939,HEGGENES,IN
2940,HEGGENES,IN
2943,ROGNE,IN
2950,SKAMMESTEIN,IN
2952,BEITO,IN
2953,BEITOSTØLEN,IN
2954,BEITOSTØLEN,IN
2959,RØN,IN
2960,RØN,IN
2965,SLIDRE,IN
2966,SLIDRE,IN
2967,LOMEN,IN
2972,RYFOSS,IN
2973,RYFOSS,IN
2974,VANG I VALDRES,IN
2975,VANG I VALDRES,IN
2977,ØYE,IN
2985,TYINKRYSSET,IN
3001,DRAMMEN,BU
3002,DRAMMEN,BU
3003,DRAMMEN,BU
3004,DRAMMEN,BU
3005,DRAMMEN,BU
3006,DRAMMEN,BU
3007,DRAMMEN,BU
3008,DRAMMEN,BU
3009,DRAMMEN,BU
3010,DRAMMEN,BU
3011,DRAMMEN,BU
3012,DRAMMEN,BU
3013,DRAMMEN,BU
3014,DRAMMEN,BU
3015,DRAMMEN,BU
3016,DRAMMEN,BU
3017,DRAMMEN,BU
3018,DRAMMEN,BU
3019,DRAMMEN,BU
3021,DRAMMEN,BU
3022,DRAMMEN,BU
3023,DRAMMEN,BU
3024,DRAMMEN,BU
3025,DRAMMEN,BU
3026,DRAMMEN,BU
3027,DRAMMEN,BU
3028,DRAMMEN,BU
3029,DRAMMEN,BU
3030,DRAMMEN,BU
3031,DRAMMEN,BU
3032,DRAMMEN,BU
3033,DRAMMEN,BU
3034,DRAMMEN,BU
3035,DRAMMEN,BU
3036,DRAMMEN,BU
3037,DRAMMEN,BU
3038,DRAMMEN,BU
3039,DRAMMEN,BU
3040,DRAMMEN,BU
3041,DRAMMEN,BU
3042,DRAMMEN,BU
3043,DRAMMEN,BU
3044,DRAMMEN,BU
3045,DRAMMEN,BU
3046,DRAMMEN,BU
3047,DRAMMEN,BU
3048,DRAMMEN,BU
3050,MJØNDALEN,BU
3051,MJØNDALEN,BU
3053,STEINBERG,BU
3054,KROKSTADELVA,BU
3055,KROKSTADELVA,BU
3056,SOLBERGELVA,BU
3057,SOLBERGELVA,BU
3058,SOLBERGMOEN,BU
3060,SVELVIK,BU
3061,SVELVIK,BU
3063,DRAMMEN,BU
3064,DRAMMEN,BU
3065,DRAMMEN,BU
3066,DRAMMEN,BU
3070,SANDE I VESTFOLD,VF
3071,SANDE I VESTFOLD,VF
3072,SANDE I VESTFOLD,VF
3073,SANDE I VESTFOLD,VF
3074,SANDE I VESTFOLD,VF
3075,BERGER,BU
3076,SANDE I VESTFOLD,VF
3077,SANDE I VESTFOLD,VF
3080,HOLMESTRAND,VF
3081,HOLMESTRAND,VF
3082,HOLMESTRAND,VF
3083,HOLMESTRAND,VF
3084,HOLMESTRAND,VF
3085,HOLMESTRAND,VF
3086,HOLMESTRAND,VF
3087,HOLMESTRAND,VF
3088,HOLMESTRAND,VF
3089,HOLMESTRAND,VF
3090,HOF,VF
3091,HOF,VF
3092,SUNDBYFOSS,VF
3095,EIDSFOSS,VF
3101,TØNSBERG,VF
3103,TØNSBERG,VF
3104,TØNSBERG,VF
3105,TØNSBERG,VF
3106,NØTTERØY,VF
3107,SEM,VF
3108,VEAR,VF
3109,TØNSBERG,VF
3110,TØNSBERG,VF
3111,TØNSBERG,VF
3112,TØNSBERG,VF
3113,TØNSBERG,VF
3114,TØNSBERG,VF
3115,TØNSBERG,VF
3116,TØNSBERG,VF
3117,TØNSBERG,VF
3118,TØNSBERG,VF
3119,TØNSBERG,VF
3120,NØTTERØY,VF
3121,NØTTERØY,VF
3122,TØNSBERG,VF
3123,TØNSBERG,VF
3124,TØNSBERG,VF
3125,TØNSBERG,VF
3126,TØNSBERG,VF
3127,TØNSBERG,VF
3128,NØTTERØY,VF
3129,TØNSBERG,VF
3131,HUSØYSUND,VF
3132,HUSØYSUND,VF
3133,DUKEN,VF
3134,TØNSBERG,VF
3135,TORØD,VF
3137,TORØD,VF
3138,SKALLESTAD,VF
3139,SKALLESTAD,VF
3140,NØTTERØY,VF
3141,KJØPMANNSKJÆR,VF
3142,VESTSKOGEN,VF
3143,KJØPMANNSKJÆR,VF
3144,VEIERLAND,VF
3145,TJØME,VF
3148,HVASSER,VF
3150,TOLVSRØD,VF
3151,TOLVSRØD,VF
3152,TOLVSRØD,VF
3153,TOLVSRØD,VF
3154,TOLVSRØD,VF
3156,MELSOMVIK,VF
3157,BARKÅKER,VF
3158,ANDEBU,VF
3159,MELSOMVIK,VF
3160,STOKKE,VF
3161,STOKKE,VF
3162,ANDEBU,VF
3163,NØTTERØY,VF
3164,REVETAL,VF
3165,TJØME,VF
3166,TOLVSRØD,VF
3167,ÅSGÅRDSTRAND,VF
3168,MELSOMVIK,VF
3170,SEM,VF
3171,SEM,VF
3172,VEAR,VF
3173,VEAR,VF
3174,REVETAL,VF
3175,RAMNES,VF
3176,UNDRUMSDAL,VF
3177,VÅLE,VF
3178,VÅLE,VF
3179,ÅSGÅRDSTRAND,VF
3180,NYKIRKE,VF
3181,HORTEN,VF
3182,HORTEN,VF
3183,HORTEN,VF
3184,BORRE,VF
3185,SKOPPUM,VF
3186,HORTEN,VF
3187,HORTEN,VF
3188,HORTEN,VF
3189,HORTEN,VF
3191,HORTEN,VF
3192,HORTEN,VF
3193,HORTEN,VF
3194,HORTEN,VF
3195,SKOPPUM,VF
3196,HORTEN,VF
3197,NYKIRKE,VF
3199,BORRE,VF
3201,SANDEFJORD,VF
3202,SANDEFJORD,VF
3203,SANDEFJORD,VF
3204,SANDEFJORD,VF
3205,SANDEFJORD,VF
3206,SANDEFJORD,VF
3207,SANDEFJORD,VF
3208,SANDEFJORD,VF
3209,SANDEFJORD,VF
3210,SANDEFJORD,VF
3211,SANDEFJORD,VF
3212,SANDEFJORD,VF
3213,SANDEFJORD,VF
3214,SANDEFJORD,VF
3215,SANDEFJORD,VF
3216,SANDEFJORD,VF
3217,SANDEFJORD,VF
3218,SANDEFJORD,VF
3219,SANDEFJORD,VF
3220,SANDEFJORD,VF
3221,SANDEFJORD,VF
3222,SANDEFJORD,VF
3223,SANDEFJORD,VF
3224,SANDEFJORD,VF
3225,SANDEFJORD,VF
3226,SANDEFJORD,VF
3227,SANDEFJORD,VF
3228,SANDEFJORD,VF
3229,SANDEFJORD,VF
3230,SANDEFJORD,VF
3231,SANDEFJORD,VF
3232,SANDEFJORD,VF
3233,SANDEFJORD,VF
3234,SANDEFJORD,VF
3235,SANDEFJORD,VF
3236,SANDEFJORD,VF
3237,SANDEFJORD,VF
3238,SANDEFJORD,VF
3239,SANDEFJORD,VF
3240,SANDEFJORD,VF
3241,SANDEFJORD,VF
3242,SANDEFJORD,VF
3243,KODAL,VF
3244,SANDEFJORD,VF
3245,KODAL,VF
3246,SANDEFJORD,VF
3247,SANDEFJORD,VF
3248,SANDEFJORD,VF
3249,SANDEFJORD,VF
3251,LARVIK,VF
3252,LARVIK,VF
3253,LARVIK,VF
3254,LARVIK,VF
3255,LARVIK,VF
3256,LARVIK,VF
3257,LARVIK,VF
3258,LARVIK,VF
3259,LARVIK,VF
3260,LARVIK,VF
3261,LARVIK,VF
3262,LARVIK,VF
3263,LARVIK,VF
3264,LARVIK,VF
3265,LARVIK,VF
3267,LARVIK,VF
3268,LARVIK,VF
3269,LARVIK,VF
3270,LARVIK,VF
3271,LARVIK,VF
3274,LARVIK,VF
3275,SVARSTAD,VF
3276,SVARSTAD,VF
3277,STEINSHOLT,VF
3280,TJODALYNG,VF
3281,TJODALYNG,VF
3282,KVELDE,VF
3284,KVELDE,VF
3285,LARVIK,VF
3290,STAVERN,VF
3291,STAVERN,VF
3292,STAVERN,VF
3294,STAVERN,VF
3295,HELGEROA,VF
3296,NEVLUNGHAVN,VF
3297,HELGEROA,VF
3300,HOKKSUND,BU
3301,HOKKSUND,BU
3302,HOKKSUND,BU
3303,HOKKSUND,BU
3320,VESTFOSSEN,BU
3321,VESTFOSSEN,BU
3322,FISKUM,BU
3330,SKOTSELV,BU
3331,SKOTSELV,BU
3340,ÅMOT,BU
3341,ÅMOT,BU
3342,ÅMOT,BU
3350,PRESTFOSS,BU
3351,PRESTFOSS,BU
3355,SOLUMSMOEN,BU
3357,EGGEDAL,BU
3358,NEDRE EGGEDAL,BU
3359,EGGEDAL,BU
3360,GEITHUS,BU
3361,GEITHUS,BU
3370,VIKERSUND,BU
3371,VIKERSUND,BU
3401,LIER,BU
3402,LIER,BU
3403,LIER,BU
3404,LIER,BU
3405,LIER,BU
3406,TRANBY,BU
3407,TRANBY,BU
3408,TRANBY,BU
3409,TRANBY,BU
3410,SYLLING,BU
3411,SYLLING,BU
3412,LIERSTRANDA,BU
3413,LIER,BU
3414,LIERSTRANDA,BU
3420,LIERSKOGEN,BU
3421,LIERSKOGEN,BU
3425,REISTAD,BU
3426,GULLAUG,BU
3427,GULLAUG,BU
3428,GULLAUG,BU
3430,SPIKKESTAD,AK
3431,SPIKKESTAD,AK
3440,RØYKEN,AK
3441,RØYKEN,AK
3442,HYGGEN,AK
3470,SLEMMESTAD,AK
3471,SLEMMESTAD,AK
3472,BØDALEN,AK
3474,ÅROS,AK
3475,SÆTRE,AK
3476,SÆTRE,AK
3477,BÅTSTØ,AK
3478,NÆRSNES,AK
3479,NÆRSNES,AK
3480,FILTVET,AK
3481,TOFTE,AK
3482,TOFTE,AK
3483,KANA,AK
3484,HOLMSBU,AK
3485,FILTVET,AK
3490,KLOKKARSTUA,AK
3501,HØNEFOSS,BU
3502,HØNEFOSS,BU
3503,HØNEFOSS,BU
3504,HØNEFOSS,BU
3507,HØNEFOSS,BU
3510,HØNEFOSS,BU
3511,HØNEFOSS,BU
3512,HØNEFOSS,BU
3513,HØNEFOSS,BU
3514,HØNEFOSS,BU
3515,HØNEFOSS,BU
3516,HØNEFOSS,BU
3517,HØNEFOSS,BU
3518,HØNEFOSS,BU
3519,HØNEFOSS,BU
3520,JEVNAKER,AK
3521,JEVNAKER,AK
3522,BJONEROA,IN
3523,NES I ÅDAL,BU
3524,NES I ÅDAL,BU
3525,HALLINGBY,BU
3526,HALLINGBY,BU
3527,BJONEROA,IN
3528,HEDALEN,IN
3529,RØYSE,BU
3530,RØYSE,BU
3531,KROKKLEIVA,BU
3532,TYRISTRAND,BU
3533,TYRISTRAND,BU
3534,SOKNA,BU
3535,KRØDEREN,BU
3536,NORESUND,BU
3537,KRØDEREN,BU
3538,SOLLIHØGDA,BU
3539,FLÅ,BU
3540,NESBYEN,BU
3541,NESBYEN,BU
3542,SOKNA,BU
3543,NORESUND,BU
3544,TUNHOVD,BU
3545,FLÅ,BU
3546,KROKKLEIVA,BU
3550,GOL,BU
3551,GOL,BU
3560,HEMSEDAL,BU
3561,HEMSEDAL,BU
3570,ÅL,BU
3571,ÅL,BU
3576,HOL,BU
3577,HOVET,BU
3579,TORPO,BU
3580,GEILO,BU
3581,GEILO,BU
3588,DAGALI,BU
3593,USTAOSET,BU
3595,HAUGASTØL,BU
3601,KONGSBERG,BU
3602,KONGSBERG,BU
3603,KONGSBERG,BU
3604,KONGSBERG,BU
3605,KONGSBERG,BU
3606,KONGSBERG,BU
3607,KONGSBERG,BU
3608,HEISTADMOEN,BU
3609,KONGSBERG,BU
3610,KONGSBERG,BU
3611,KONGSBERG,BU
3612,KONGSBERG,BU
3613,KONGSBERG,BU
3614,KONGSBERG,BU
3615,KONGSBERG,BU
3616,KONGSBERG,BU
3617,KONGSBERG,BU
3618,SKOLLENBORG,BU
3619,SKOLLENBORG,BU
3620,FLESBERG,BU
3621,LAMPELAND,BU
3622,SVENE,BU
3623,LAMPELAND,BU
3624,LYNGDAL I NUMEDAL,BU
3625,SKOLLENBORG,BU
3626,ROLLAG,BU
3627,VEGGLI,BU
3628,VEGGLI,BU
3629,NORE,BU
3630,RØDBERG,BU
3631,RØDBERG,BU
3632,UVDAL,BU
3634,NORE,BU
3646,HVITTINGFOSS,BU
3647,HVITTINGFOSS,BU
3648,PASSEBEKK,BU
3650,TINN AUSTBYGD,TM
3652,HOVIN I TELEMARK,TM
3656,ATRÅ,TM
3658,MILAND,TM
3660,RJUKAN,TM
3661,RJUKAN,TM
3665,SAULAND,TM
3666,ATRÅ,TM
3671,NOTODDEN,TM
3672,NOTODDEN,TM
3673,NOTODDEN,TM
3674,NOTODDEN,TM
3675,NOTODDEN,TM
3676,NOTODDEN,TM
3677,NOTODDEN,TM
3678,NOTODDEN,TM
3679,NOTODDEN,TM
3680,NOTODDEN,TM
3681,NOTODDEN,TM
3683,NOTODDEN,TM
3684,NOTODDEN,TM
3690,HJARTDAL,TM
3691,GRANSHERAD,TM
3692,SAULAND,TM
3697,TUDDAL,TM
3701,SKIEN,TM
3702,SKIEN,TM
3703,SKIEN,TM
3704,SKIEN,TM
3705,SKIEN,TM
3707,SKIEN,TM
3710,SKIEN,TM
3711,SKIEN,TM
3712,SKIEN,TM
3713,SKIEN,TM
3714,SKIEN,TM
3715,SKIEN,TM
3716,SKIEN,TM
3717,SKIEN,TM
3718,SKIEN,TM
3719,SKIEN,TM
3720,SKIEN,TM
3721,SKIEN,TM
3722,SKIEN,TM
3723,SKIEN,TM
3724,SKIEN,TM
3725,SKIEN,TM
3726,SKIEN,TM
3727,SKIEN,TM
3728,SKIEN,TM
3729,SKIEN,TM
3730,SKIEN,TM
3731,SKIEN,TM
3732,SKIEN,TM
3733,SKIEN,TM
3734,SKIEN,TM
3735,SKIEN,TM
3736,SKIEN,TM
3737,SKIEN,TM
3738,SKIEN,TM
3739,SKIEN,TM
3740,SKIEN,TM
3741,SKIEN,TM
3742,SKIEN,TM
3743,SKIEN,TM
3744,SKIEN,TM
3746,SKIEN,TM
3747,SKIEN,TM
3748,SILJAN,TM
3749,SILJAN,TM
3750,DRANGEDAL,TM
3753,TØRDAL,TM
3760,NESLANDSVATN,TM
3766,SANNIDAL,TM
3770,KRAGERØ,TM
3772,KRAGERØ,TM
3780,SKÅTØY,TM
3781,JOMFRULAND,TM
3783,KRAGERØ SKJÆRGÅRD,TM
3785,SKIEN,TM
3786,SKIEN,TM
3787,SKIEN,TM
3788,STABBESTAD,TM
3789,KRAGERØ,TM
3790,HELLE,TM
3791,KRAGERØ,TM
3792,SKIEN,TM
3793,SANNIDAL,TM
3794,HELLE,TM
3795,DRANGEDAL,TM
3796,SKIEN,TM
3798,SKIEN,TM
3799,SKIEN,TM
3800,BØ I TELEMARK,TM
3801,BØ I TELEMARK,TM
3802,BØ I TELEMARK,TM
3803,BØ I TELEMARK,TM
3804,BØ I TELEMARK,TM
3805,BØ I TELEMARK,TM
3810,GVARV,TM
3811,HØRTE,TM
3812,AKKERHAUGEN,TM
3820,NORDAGUTU,TM
3825,LUNDE,TM
3830,ULEFOSS,TM
3831,ULEFOSS,TM
3832,LUNDE,TM
3833,BØ I TELEMARK,TM
3834,GVARV,TM
3835,SELJORD,TM
3836,KVITESEID,TM
3840,SELJORD,TM
3841,FLATDAL,TM
3844,ÅMOTSDAL,TM
3848,MORGEDAL,TM
3849,VRÅLIOSEN,TM
3850,KVITESEID,TM
3852,VRÅDAL,TM
3853,VRÅDAL,TM
3854,NISSEDAL,TM
3855,TREUNGEN,TM
3864,RAULAND,TM
3870,FYRESDAL,TM
3880,DALEN,TM
3882,ÅMDALS VERK,TM
3883,TREUNGEN,TM
3884,RAULAND,TM
3885,FYRESDAL,TM
3886,DALEN,TM
3887,VINJE,TM
3888,EDLAND,TM
3890,VINJE,TM
3891,HØYDALSMO,TM
3893,VINJESVINGEN,TM
3895,EDLAND,TM
3901,PORSGRUNN,TM
3902,PORSGRUNN,TM
3903,PORSGRUNN,TM
3904,PORSGRUNN,TM
3905,PORSGRUNN,TM
3906,PORSGRUNN,TM
3910,PORSGRUNN,TM
3911,PORSGRUNN,TM
3912,PORSGRUNN,TM
3913,PORSGRUNN,TM
3914,PORSGRUNN,TM
3915,PORSGRUNN,TM
3916,PORSGRUNN,TM
3917,PORSGRUNN,TM
3918,PORSGRUNN,TM
3919,PORSGRUNN,TM
3920,PORSGRUNN,TM
3921,PORSGRUNN,TM
3922,PORSGRUNN,TM
3924,PORSGRUNN,TM
3925,PORSGRUNN,TM
3928,PORSGRUNN,TM
3929,PORSGRUNN,TM
3930,PORSGRUNN,TM
3931,PORSGRUNN,TM
3933,PORSGRUNN,TM
3936,PORSGRUNN,TM
3937,PORSGRUNN,TM
3939,PORSGRUNN,TM
3940,PORSGRUNN,TM
3941,PORSGRUNN,TM
3942,PORSGRUNN,TM
3943,PORSGRUNN,TM
3944,PORSGRUNN,TM
3946,PORSGRUNN,TM
3947,LANGANGEN,TM
3948,PORSGRUNN,TM
3949,PORSGRUNN,TM
3950,BREVIK,TM
3960,STATHELLE,TM
3961,STATHELLE,TM
3962,STATHELLE,TM
3965,HERRE,TM
3966,STATHELLE,TM
3967,STATHELLE,TM
3970,LANGESUND,TM
3991,BREVIK,TM
3993,LANGESUND,TM
3994,LANGESUND,TM
3995,STATHELLE,TM
3996,PORSGRUNN,TM
3997,PORSGRUNN,TM
3998,PORSGRUNN,TM
3999,HERRE,TM
4001,STAVANGER,ROG
4002,STAVANGER,ROG
4003,STAVANGER,ROG
4004,STAVANGER,ROG
4005,STAVANGER,ROG
4006,STAVANGER,ROG
4007,STAVANGER,ROG
4008,STAVANGER,ROG
4009,STAVANGER,ROG
4010,STAVANGER,ROG
4011,STAVANGER,ROG
4012,STAVANGER,ROG
4013,STAVANGER,ROG
4014,STAVANGER,ROG
4015,STAVANGER,ROG
4016,STAVANGER,ROG
4017,STAVANGER,ROG
4018,STAVANGER,ROG
4019,STAVANGER,ROG
4020,STAVANGER,ROG
4021,STAVANGER,ROG
4022,STAVANGER,ROG
4023,STAVANGER,ROG
4024,STAVANGER,ROG
4025,STAVANGER,ROG
4026,STAVANGER,ROG
4027,STAVANGER,ROG
4028,STAVANGER,ROG
4029,STAVANGER,ROG
4031,STAVANGER,ROG
4032,STAVANGER,ROG
4033,STAVANGER,ROG
4034,STAVANGER,ROG
4035,STAVANGER,ROG
4036,STAVANGER,ROG
4041,HAFRSFJORD,ROG
4042,HAFRSFJORD,ROG
4043,HAFRSFJORD,ROG
4044,HAFRSFJORD,ROG
4045,HAFRSFJORD,ROG
4046,HAFRSFJORD,ROG
4047,HAFRSFJORD,ROG
4048,HAFRSFJORD,ROG
4049,HAFRSFJORD,ROG
4050,SOLA,ROG
4051,SOLA,ROG
4052,RØYNEBERG,ROG
4053,RÆGE,ROG
4054,TJELTA,ROG
4055,SOLA,ROG
4056,TANANGER,ROG
4057,TANANGER,ROG
4058,TANANGER,ROG
4059,RØYNEBERG,ROG
4063,TJELTA,ROG
4068,STAVANGER,ROG
4070,RANDABERG,ROG
4071,RANDABERG,ROG
4072,RANDABERG,ROG
4073,RANDABERG,ROG
4076,VASSØY,ROG
4077,HUNDVÅG,ROG
4078,STAVANGER,ROG
4079,STAVANGER,ROG
4081,STAVANGER,ROG
4082,STAVANGER,ROG
4083,HUNDVÅG,ROG
4084,STAVANGER,ROG
4085,HUNDVÅG,ROG
4086,HUNDVÅG,ROG
4087,STAVANGER,ROG
4088,STAVANGER,ROG
4089,HAFRSFJORD,ROG
4090,HAFRSFJORD,ROG
4091,HAFRSFJORD,ROG
4092,STAVANGER,ROG
4093,STAVANGER,ROG
4094,STAVANGER,ROG
4095,STAVANGER,ROG
4096,RANDABERG,ROG
4097,SOLA,ROG
4098,TANANGER,ROG
4099,STAVANGER,ROG
4100,JØRPELAND,ROG
4102,IDSE,ROG
4103,JØRPELAND,ROG
4104,JØRPELAND,ROG
4105,JØRPELAND,ROG
4110,FORSAND,ROG
4119,FORSAND,ROG
4120,TAU,ROG
4121,TAU,ROG
4123,SØR-HIDLE,ROG
4124,TAU,ROG
4126,JØRPELAND,ROG
4127,LYSEBOTN,ROG
4128,FLØRLI,ROG
4129,SONGESAND,ROG
4130,HJELMELAND,ROG
4134,JØSENFJORDEN,ROG
4137,ÅRDAL I RYFYLKE,ROG
4139,FISTER,ROG
4146,SKIFTUN,ROG
4148,HJELMELAND,ROG
4150,RENNESØY,ROG
4152,VESTRE ÅMØY,ROG
4153,BRIMSE,ROG
4154,AUSTRE ÅMØY,ROG
4156,MOSTERØY,ROG
4158,BRU,ROG
4159,RENNESØY,ROG
4160,FINNØY,ROG
4161,FINNØY,ROG
4163,TALGJE,ROG
4164,FOGN,ROG
4167,HELGØY I RYFYLKE,ROG
4168,BYRE,ROG
4169,SØRBOKN,ROG
4170,SJERNARØY,ROG
4173,NORD-HIDLE,ROG
4174,SJERNARØY,ROG
4180,KVITSØY,ROG
4181,KVITSØY,ROG
4182,SKARTVEIT,ROG
4187,OMBO,ROG
4198,FOLDØY,ROG
4200,SAUDA,ROG
4201,SAUDA,ROG
4208,SAUDASJØEN,ROG
4209,VANVIK,ROG
4230,SAND,ROG
4233,ERFJORD,ROG
4234,JELSA,ROG
4235,HEBNES,ROG
4237,SULDALSOSEN,ROG
4238,ERFJORD,ROG
4239,SAND,ROG
4240,SULDALSOSEN,ROG
4244,NESFLATEN,ROG
4250,KOPERVIK,ROG
4260,TORVASTAD,ROG
4262,AVALDSNES,ROG
4264,KVALAVÅG,ROG
4265,HÅVIK,ROG
4270,ÅKREHAMN,ROG
4272,SANDVE,ROG
4274,STOL,ROG
4275,SÆVELANDSVIK,ROG
4276,VEAVÅGEN,ROG
4280,SKUDENESHAVN,ROG
4291,KOPERVIK,ROG
4294,KOPERVIK,ROG
4295,VEAVÅGEN,ROG
4296,ÅKREHAMN,ROG
4297,SKUDENESHAVN,ROG
4298,TORVASTAD,ROG
4299,AVALDSNES,ROG
4301,SANDNES,ROG
4302,SANDNES,ROG
4306,SANDNES,ROG
4307,SANDNES,ROG
4308,SANDNES,ROG
4309,SANDNES,ROG
4310,HOMMERSÅK,ROG
4311,HOMMERSÅK,ROG
4312,SANDNES,ROG
4313,SANDNES,ROG
4314,SANDNES,ROG
4315,SANDNES,ROG
4316,SANDNES,ROG
4317,SANDNES,ROG
4318,SANDNES,ROG
4319,SANDNES,ROG
4320,SANDNES,ROG
4321,SANDNES,ROG
4322,SANDNES,ROG
4323,SANDNES,ROG
4324,SANDNES,ROG
4325,SANDNES,ROG
4326,SANDNES,ROG
4327,SANDNES,ROG
4328,SANDNES,ROG
4329,SANDNES,ROG
4330,ÅLGÅRD,ROG
4331,ÅLGÅRD,ROG
4332,FIGGJO,ROG
4333,OLTEDAL,ROG
4334,ÅLGÅRD,ROG
4335,DIRDAL,ROG
4336,SANDNES,ROG
4337,SANDNES,ROG
4338,SANDNES,ROG
4339,ÅLGÅRD,ROG
4340,BRYNE,ROG
4341,BRYNE,ROG
4342,UNDHEIM,ROG
4343,ORRE,ROG
4344,BRYNE,ROG
4345,BRYNE,ROG
4346,BRYNE,ROG
4347,LYE,ROG
4348,LYE,ROG
4349,BRYNE,ROG
4350,KLEPPE,ROG
4351,KLEPPE,ROG
4352,KLEPPE,ROG
4353,KLEPP STASJON,ROG
4354,VOLL,ROG
4355,KVERNALAND,ROG
4356,KVERNALAND,ROG
4357,KLEPP STASJON,ROG
4358,KLEPPE,ROG
4360,VARHAUG,ROG
4361,SIREVÅG,ROG
4362,VIGRESTAD,ROG
4363,BRUSAND,ROG
4364,SIREVÅG,ROG
4365,NÆRBØ,ROG
4367,NÆRBØ,ROG
4368,VARHAUG,ROG
4369,VIGRESTAD,ROG
4370,EGERSUND,ROG
4371,EGERSUND,ROG
4372,EGERSUND,ROG
4373,EGERSUND,ROG
4374,EGERSUND,ROG
4375,HELLVIK,ROG
4376,HELLELAND,ROG
4378,EGERSUND,ROG
4379,EGERSUND,ROG
4380,HAUGE I DALANE,ROG
4381,HAUGE I DALANE,ROG
4384,VIKESÅ,ROG
4385,HELLELAND,ROG
4387,BJERKREIM,ROG
4389,VIKESÅ,ROG
4390,OLTEDAL,ROG
4391,SANDNES,ROG
4392,SANDNES,ROG
4393,SANDNES,ROG
4394,SANDNES,ROG
4395,HOMMERSÅK,ROG
4396,SANDNES,ROG
4397,SANDNES,ROG
4398,SANDNES,ROG
4399,SANDNES,ROG
4400,FLEKKEFJORD,AG
4401,FLEKKEFJORD,AG
4402,FLEKKEFJORD,AG
4403,FLEKKEFJORD,AG
4404,FLEKKEFJORD,AG
4405,FLEKKEFJORD,AG
4406,FLEKKEFJORD,AG
4407,FLEKKEFJORD,AG
4420,ÅNA-SIRA,AG
4432,HIDRASUND,AG
4434,ANDABELØY,AG
4436,GYLAND,AG
4438,SIRA,AG
4439,SIRA,AG
4440,TONSTAD,AG
4441,TONSTAD,AG
4443,TJØRHOM,AG
4460,MOI,ROG
4462,HOVSHERAD,ROG
4463,UALAND,ROG
4465,MOI,ROG
4473,KVINLOG,AG
4480,KVINESDAL,AG
4484,ØYESTRANDA,AG
4485,FEDA,AG
4486,FEDA,AG
4490,KVINESDAL,AG
4491,KVINESDAL,AG
4492,KVINESDAL,AG
4501,MANDAL,AG
4502,MANDAL,AG
4503,MANDAL,AG
4504,MANDAL,AG
4507,MANDAL,AG
4508,MANDAL,AG
4509,MANDAL,AG
4513,MANDAL,AG
4514,MANDAL,AG
4515,MANDAL,AG
4516,MANDAL,AG
4517,MANDAL,AG
4519,HOLUM,AG
4520,LINDESNES,AG
4521,LINDESNES,AG
4522,LINDESNES,AG
4523,LINDESNES,AG
4524,LINDESNES,AG
4525,KONSMO,AG
4526,KONSMO,AG
4528,KOLLUNGTVEIT,AG
4529,BYREMO,AG
4532,ØYSLEBØ,AG
4534,MARNARDAL,AG
4535,MARNARDAL,AG
4536,BJELLAND,AG
4540,ÅSERAL,AG
4541,ÅSERAL,AG
4544,FOSSDAL,AG
4550,FARSUND,AG
4551,FARSUND,AG
4552,FARSUND,AG
4553,FARSUND,AG
4554,FARSUND,AG
4557,VANSE,AG
4558,VANSE,AG
4560,VANSE,AG
4563,BORHAUG,AG
4575,LYNGDAL,AG
4576,LYNGDAL,AG
4577,LYNGDAL,AG
4579,LYNGDAL,AG
4580,LYNGDAL,AG
4586,KORSHAMN,AG
4588,KVÅS,AG
4590,SNARTEMO,AG
4595,TINGVATN,AG
4596,EIKEN,AG
4597,EIKEN,AG
4604,KRISTIANSAND S,AG
4605,KRISTIANSAND S,AG
4606,KRISTIANSAND S,AG
4608,KRISTIANSAND S,AG
4609,KARDEMOMME BY,AG
4610,KRISTIANSAND S,AG
4611,KRISTIANSAND S,AG
4612,KRISTIANSAND S,AG
4613,KRISTIANSAND S,AG
4614,KRISTIANSAND S,AG
4615,KRISTIANSAND S,AG
4616,KRISTIANSAND S,AG
4617,KRISTIANSAND S,AG
4618,KRISTIANSAND S,AG
4619,MOSBY,AG
4620,KRISTIANSAND S,AG
4621,KRISTIANSAND S,AG
4622,KRISTIANSAND S,AG
4623,KRISTIANSAND S,AG
4624,KRISTIANSAND S,AG
4625,FLEKKERØY,AG
4626,KRISTIANSAND S,AG
4628,KRISTIANSAND S,AG
4629,KRISTIANSAND S,AG
4630,KRISTIANSAND S,AG
4631,KRISTIANSAND S,AG
4632,KRISTIANSAND S,AG
4633,KRISTIANSAND S,AG
4634,KRISTIANSAND S,AG
4635,KRISTIANSAND S,AG
4636,KRISTIANSAND S,AG
4637,KRISTIANSAND S,AG
4638,KRISTIANSAND S,AG
4639,KRISTIANSAND S,AG
4640,SØGNE,AG
4641,SØGNE,AG
4642,SØGNE,AG
4643,SØGNE,AG
4644,SØGNE,AG
4645,NODELAND,AG
4646,FINSLAND,AG
4647,BRENNÅSEN,AG
4649,FINSLAND,AG
4656,HAMRESANDEN,AG
4657,KJEVIK,AG
4658,TVEIT,AG
4661,KRISTIANSAND S,AG
4662,KRISTIANSAND S,AG
4663,KRISTIANSAND S,AG
4664,KRISTIANSAND S,AG
4665,KRISTIANSAND S,AG
4666,KRISTIANSAND S,AG
4670,KRISTIANSAND S,AG
4671,KRISTIANSAND S,AG
4673,KRISTIANSAND S,AG
4674,KRISTIANSAND S,AG
4675,KRISTIANSAND S,AG
4676,KRISTIANSAND S,AG
4677,KRISTIANSAND S,AG
4678,KRISTIANSAND S,AG
4679,FLEKKERØY,AG
4681,SØGNE,AG
4682,SØGNE,AG
4683,SØGNE,AG
4684,BRENNÅSEN,AG
4685,NODELAND,AG
4686,KRISTIANSAND S,AG
4687,KRISTIANSAND S,AG
4688,KRISTIANSAND S,AG
4689,KRISTIANSAND S,AG
4691,KRISTIANSAND S,AG
4693,KRISTIANSAND S,AG
4694,KRISTIANSAND S,AG
4695,KRISTIANSAND S,AG
4696,KRISTIANSAND S,AG
4697,KRISTIANSAND S,AG
4698,KRISTIANSAND S,AG
4699,TVEIT,AG
4700,VENNESLA,AG
4701,VENNESLA,AG
4702,VENNESLA,AG
4703,VENNESLA,AG
4705,ØVREBØ,AG
4706,VENNESLA,AG
4707,VENNESLA,AG
4708,VENNESLA,AG
4715,ØVREBØ,AG
4720,HÆGELAND,AG
4721,HÆGELAND,AG
4724,IVELAND,AG
4725,IVELAND,AG
4730,VATNESTRØM,AG
4733,EVJE,AG
4734,EVJE,AG
4735,EVJE,AG
4737,HORNNES,AG
4741,BYGLANDSFJORD,AG
4742,GRENDI,AG
4744,BYGLAND,AG
4745,BYGLAND,AG
4746,VALLE,AG
4747,VALLE,AG
4748,RYSSTAD,AG
4749,RYSSTAD,AG
4754,BYKLE,AG
4755,HOVDEN I SETESDAL,AG
4756,HOVDEN I SETESDAL,AG
4760,BIRKELAND,AG
4766,HEREFOSS,AG
4768,ENGESLAND,AG
4770,HØVÅG,AG
4780,BREKKESTØ,AG
4790,LILLESAND,AG
4791,LILLESAND,AG
4792,LILLESAND,AG
4793,HØVÅG,AG
4794,LILLESAND,AG
4795,BIRKELAND,AG
4801,ARENDAL,AG
4802,ARENDAL,AG
4803,ARENDAL,AG
4804,ARENDAL,AG
4808,ARENDAL,AG
4809,ARENDAL,AG
4810,EYDEHAVN,AG
4812,KONGSHAVN,AG
4815,SALTRØD,AG
4816,KOLBJØRNSVIK,AG
4817,HIS,AG
4818,FÆRVIK,AG
4820,FROLAND,AG
4821,RYKENE,AG
4822,RYKENE,AG
4823,NEDENES,AG
4824,BJORBEKK,AG
4825,ARENDAL,AG
4827,FROLANDS VERK,AG
4828,MJÅVATN,AG
4830,HYNNEKLEIV,AG
4832,MYKLAND,AG
4834,RISDAL,AG
4836,ARENDAL,AG
4838,ARENDAL,AG
4839,ARENDAL,AG
4841,ARENDAL,AG
4842,ARENDAL,AG
4843,ARENDAL,AG
4844,ARENDAL,AG
4846,ARENDAL,AG
4847,ARENDAL,AG
4848,ARENDAL,AG
4849,ARENDAL,AG
4851,SALTRØD,AG
4852,FÆRVIK,AG
4853,HIS,AG
4854,NEDENES,AG
4855,FROLAND,AG
4856,ARENDAL,AG
4857,ARENDAL,AG
4858,ARENDAL,AG
4859,ARENDAL,AG
4862,EYDEHAVN,AG
4863,NELAUG,AG
4864,ÅMLI,AG
4865,ÅMLI,AG
4868,SELÅSVATN,AG
4869,DØLEMO,AG
4870,FEVIK,AG
4876,GRIMSTAD,AG
4877,GRIMSTAD,AG
4878,GRIMSTAD,AG
4879,GRIMSTAD,AG
4884,GRIMSTAD,AG
4885,GRIMSTAD,AG
4886,GRIMSTAD,AG
4887,GRIMSTAD,AG
4888,HOMBORSUND,AG
4889,FEVIK,AG
4891,GRIMSTAD,AG
4892,GRIMSTAD,AG
4893,GRIMSTAD,AG
4894,GRIMSTAD,AG
4896,GRIMSTAD,AG
4898,GRIMSTAD,AG
4900,TVEDESTRAND,AG
4901,TVEDESTRAND,AG
4902,TVEDESTRAND,AG
4903,TVEDESTRAND,AG
4904,TVEDESTRAND,AG
4905,TVEDESTRAND,AG
4909,SONGE,AG
4910,LYNGØR,AG
4912,GJEVING,AG
4915,VESTRE SANDØYA,AG
4916,BORØY,AG
4920,STAUBØ,AG
4921,STAUBØ,AG
4934,NES VERK,AG
4950,RISØR,AG
4951,RISØR,AG
4952,RISØR,AG
4953,RISØR,AG
4955,RISØR,AG
4956,RISØR,AG
4957,RISØR,AG
4971,SUNDEBRU,AG
4972,GJERSTAD,AG
4973,VEGÅRSHEI,AG
4974,SØNDELED,AG
4980,GJERSTAD,AG
4985,VEGÅRSHEI,AG
4990,SØNDELED,AG
4993,SUNDEBRU,AG
4994,AKLAND,AG
5003,BERGEN,VL
5004,BERGEN,VL
5005,BERGEN,VL
5006,BERGEN,VL
5007,BERGEN,VL
5008,BERGEN,VL
5009,BERGEN,VL
5010,BERGEN,VL
5011,BERGEN,VL
5012,BERGEN,VL
5013,BERGEN,VL
5014,BERGEN,VL
5015,BERGEN,VL
5016,BERGEN,VL
5017,BERGEN,VL
5018,BERGEN,VL
5019,BERGEN,VL
5020,BERGEN,VL
5021,BERGEN,VL
5022,BERGEN,VL
5031,BERGEN,VL
5032,BERGEN,VL
5033,BERGEN,VL
5034,BERGEN,VL
5035,BERGEN,VL
5036,BERGEN,VL
5037,BERGEN,VL
5038,BERGEN,VL
5039,BERGEN,VL
5041,BERGEN,VL
5042,BERGEN,VL
5043,BERGEN,VL
5045,BERGEN,VL
5052,BERGEN,VL
5053,BERGEN,VL
5054,BERGEN,VL
5055,BERGEN,VL
5056,BERGEN,VL
5057,BERGEN,VL
5058,BERGEN,VL
5059,BERGEN,VL
5063,BERGEN,VL
5067,BERGEN,VL
5068,BERGEN,VL
5072,BERGEN,VL
5073,BERGEN,VL
5075,BERGEN,VL
5081,BERGEN,VL
5082,BERGEN,VL
5089,BERGEN,VL
5093,BERGEN,VL
5094,BERGEN,VL
5096,BERGEN,VL
5097,BERGEN,VL
5098,BERGEN,VL
5099,BERGEN,VL
5101,EIDSVÅGNESET,VL
5104,EIDSVÅG I ÅSANE,VL
5105,EIDSVÅG I ÅSANE,VL
5106,ØVRE ERVIK,VL
5107,SALHUS,VL
5108,HORDVIK,VL
5109,HYLKJE,VL
5111,BREISTEIN,VL
5113,TERTNES,VL
5114,TERTNES,VL
5115,ULSET,VL
5116,ULSET,VL
5117,ULSET,VL
5118,ULSET,VL
5119,ULSET,VL
5121,ULSET,VL
5122,MORVIK,VL
5124,MORVIK,VL
5130,NYBORG,VL
5131,NYBORG,VL
5132,NYBORG,VL
5134,FLAKTVEIT,VL
5135,FLAKTVEIT,VL
5136,MJØLKERÅEN,VL
5137,MJØLKERÅEN,VL
5141,FYLLINGSDALEN,VL
5142,FYLLINGSDALEN,VL
5143,FYLLINGSDALEN,VL
5144,FYLLINGSDALEN,VL
5145,FYLLINGSDALEN,VL
5146,FYLLINGSDALEN,VL
5147,FYLLINGSDALEN,VL
5148,FYLLINGSDALEN,VL
5151,STRAUMSGREND,VL
5152,BØNES,VL
5153,BØNES,VL
5154,BØNES,VL
5155,BØNES,VL
5160,LAKSEVÅG,VL
5161,LAKSEVÅG,VL
5162,LAKSEVÅG,VL
5163,LAKSEVÅG,VL
5164,LAKSEVÅG,VL
5165,LAKSEVÅG,VL
5170,BJØRNDALSTRÆ,VL
5171,LODDEFJORD,VL
5172,LODDEFJORD,VL
5173,LODDEFJORD,VL
5174,MATHOPEN,VL
5176,LODDEFJORD,VL
5177,BJØRØYHAMN,VL
5178,LODDEFJORD,VL
5179,GODVIK,VL
5183,OLSVIK,VL
5184,OLSVIK,VL
5200,OS,VL
5201,OS,VL
5202,OS,VL
5203,OS,VL
5206,OS,VL
5207,SØFTELAND,VL
5208,OS,VL
5209,OS,VL
5210,OS,VL
5211,OS,VL
5212,SØFTELAND,VL
5213,LEPSØY,VL
5214,LYSEKLOSTER,VL
5215,LYSEKLOSTER,VL
5216,LEPSØY,VL
5217,HAGAVIK,VL
5218,NORDSTRØNO,VL
5221,NESTTUN,VL
5222,NESTTUN,VL
5223,NESTTUN,VL
5224,NESTTUN,VL
5225,NESTTUN,VL
5226,NESTTUN,VL
5227,NESTTUN,VL
5228,NESTTUN,VL
5229,KALANDSEIDET,VL
5230,PARADIS,VL
5231,PARADIS,VL
5232,PARADIS,VL
5235,RÅDAL,VL
5236,RÅDAL,VL
5237,RÅDAL,VL
5238,RÅDAL,VL
5239,RÅDAL,VL
5243,FANA,VL
5244,FANA,VL
5251,SØREIDGREND,VL
5252,SØREIDGREND,VL
5253,SANDSLI,VL
5254,SANDSLI,VL
5257,KOKSTAD,VL
5258,BLOMSTERDALEN,VL
5259,HJELLESTAD,VL
5260,INDRE ARNA,VL
5261,INDRE ARNA,VL
5262,ARNATVEIT,VL
5263,TRENGEREID,VL
5264,GARNES,VL
5265,YTRE ARNA,VL
5267,ESPELAND,VL
5268,HAUKELAND,VL
5281,VALESTRANDSFOSSEN,VL
5282,LONEVÅG,VL
5283,FOTLANDSVÅG,VL
5284,TYSSEBOTNEN,VL
5285,BRUVIK,VL
5286,HAUS,VL
5291,VALESTRANDSFOSSEN,VL
5293,LONEVÅG,VL
5299,HAUS,VL
5300,KLEPPESTØ,VL
5301,KLEPPESTØ,VL
5302,STRUSSHAMN,VL
5303,FOLLESE,VL
5304,HETLEVIK,VL
5305,FLORVÅG,VL
5306,ERDAL,VL
5307,ASK,VL
5308,KLEPPESTØ,VL
5309,KLEPPESTØ,VL
5310,HAUGLANDSHELLA,VL
5311,KJERRGARDEN,VL
5314,KJERRGARDEN,VL
5315,HERDLA,VL
5318,STRUSSHAMN,VL
5319,KLEPPESTØ,VL
5321,KLEPPESTØ,VL
5322,KLEPPESTØ,VL
5323,KLEPPESTØ,VL
5325,FOLLESE,VL
5326,ASK,VL
5327,HAUGLANDSHELLA,VL
5329,FLORVÅG,VL
5331,RONG,VL
5333,TJELDSTØ,VL
5334,HELLESØY,VL
5335,HERNAR,VL
5336,TJELDSTØ,VL
5337,RONG,VL
5341,STRAUME,VL
5342,STRAUME,VL
5343,STRAUME,VL
5345,KNARREVIK,VL
5346,ÅGOTNES,VL
5347,ÅGOTNES,VL
5350,BRATTHOLMEN,VL
5353,STRAUME,VL
5354,STRAUME,VL
5355,KNARREVIK,VL
5357,FJELL,VL
5358,FJELL,VL
5360,KOLLTVEIT,VL
5363,ÅGOTNES,VL
5365,TURØY,VL
5366,MISJE,VL
5371,SKOGSVÅG,VL
5374,STEINSLAND,VL
5378,KLOKKARVIK,VL
5379,STEINSLAND,VL
5380,TELAVÅG,VL
5381,GLESVÆR,VL
5382,SKOGSVÅG,VL
5384,TORANGSVÅG,VL
5385,BAKKASUND,VL
5387,MØKSTER,VL
5388,LITLAKALSØY,VL
5392,STOREBØ,VL
5393,STOREBØ,VL
5394,KOLBEINSVIK,VL
5396,VESTRE VINNESVÅG,VL
5397,BEKKJARVIK,VL
5398,STOLMEN,VL
5399,BEKKJARVIK,VL
5401,STORD,VL
5402,STORD,VL
5403,STORD,VL
5404,STORD,VL
5406,STORD,VL
5407,STORD,VL
5408,SAGVÅG,VL
5409,STORD,VL
5410,SAGVÅG,VL
5411,STORD,VL
5412,STORD,VL
5413,HUGLO,VL
5414,STORD,VL
5415,STORD,VL
5416,STORD,VL
5417,STORD,VL
5418,FITJAR,VL
5419,FITJAR,VL
5420,RUBBESTADNESET,VL
5423,BRANDASUND,VL
5427,URANGSVÅG,VL
5428,FOLDRØYHAMN,VL
5430,BREMNES,VL
5437,FINNÅS,VL
5440,MOSTERHAMN,VL
5443,BØMLO,VL
5444,ESPEVÆR,VL
5445,BREMNES,VL
5447,MOSTERHAMN,VL
5449,BØMLO,VL
5450,SUNDE I SUNNHORDLAND,VL
5451,VALEN,VL
5452,SANDVOLL,VL
5453,UTÅKER,VL
5454,SÆBØVIK,VL
5455,HALSNØY KLOSTER,VL
5457,HØYLANDSBYGD,VL
5458,ARNAVIK,VL
5459,FJELBERG,VL
5460,HUSNES,VL
5462,HERØYSUNDET,VL
5463,USKEDALEN,VL
5464,DIMMELSVIK,VL
5465,USKEDALEN,VL
5470,ROSENDAL,VL
5472,SEIMSFOSS,VL
5473,SNILSTVEITØY,VL
5474,LØFALLSTRAND,VL
5475,ÆNES,VL
5476,MAURANGER,VL
5480,HUSNES,VL
5484,SÆBØVIK,VL
5486,ROSENDAL,VL
5498,MATRE,VL
5499,ÅKRA,VL
5501,HAUGESUND,ROG
5502,HAUGESUND,ROG
5503,HAUGESUND,ROG
5504,HAUGESUND,ROG
5505,HAUGESUND,ROG
5506,HAUGESUND,ROG
5507,HAUGESUND,ROG
5508,KARMSUND,ROG
5509,HAUGESUND,ROG
5511,HAUGESUND,ROG
5512,HAUGESUND,ROG
5514,HAUGESUND,ROG
5515,HAUGESUND,ROG
5516,HAUGESUND,ROG
5517,HAUGESUND,ROG
5518,HAUGESUND,ROG
5519,HAUGESUND,ROG
5521,HAUGESUND,ROG
5522,HAUGESUND,ROG
5523,HAUGESUND,ROG
5525,HAUGESUND,ROG
5527,HAUGESUND,ROG
5528,HAUGESUND,ROG
5529,HAUGESUND,ROG
5531,HAUGESUND,ROG
5532,HAUGESUND,ROG
5533,HAUGESUND,ROG
5534,HAUGESUND,ROG
5535,HAUGESUND,ROG
5536,HAUGESUND,ROG
5537,HAUGESUND,ROG
5538,HAUGESUND,ROG
5541,KOLNES,ROG
5542,KARMSUND,ROG
5544,VORMEDAL,ROG
5545,VORMEDAL,ROG
5546,RØYKSUND,ROG
5547,UTSIRA,ROG
5548,FEØY,ROG
5549,RØVÆR,ROG
5550,SVEIO,VL
5551,AUKLANDSHAMN,VL
5554,VALEVÅG,VL
5555,FØRDE I HORDALAND,VL
5556,FØRDE I HORDALAND,VL
5559,SVEIO,VL
5560,NEDSTRAND,ROG
5561,BOKN,ROG
5562,NEDSTRAND,ROG
5563,FØRRESFJORDEN,ROG
5565,TYSVÆRVÅG,ROG
5566,HERVIK,ROG
5567,SKJOLDASTRAUMEN,ROG
5568,VIKEBYGD,ROG
5569,BOKN,ROG
5570,AKSDAL,ROG
5574,SKJOLD,ROG
5575,AKSDAL,ROG
5576,ØVRE VATS,ROG
5578,NEDRE VATS,ROG
5580,ØLEN,ROG
5582,ØLENSVÅG,ROG
5583,VIKEDAL,ROG
5584,BJOA,ROG
5585,SANDEID,ROG
5586,VIKEDAL,ROG
5588,ØLEN,ROG
5589,SANDEID,ROG
5590,ETNE,VL
5591,ETNE,VL
5593,SKÅNEVIK,VL
5594,SKÅNEVIK,VL
5595,FØRRESFJORDEN,ROG
5596,MARKHUS,VL
5598,FJÆRA,VL
5600,NORHEIMSUND,VL
5601,NORHEIMSUND,VL
5602,NORHEIMSUND,VL
5604,ØYSTESE,VL
5605,ÅLVIK,VL
5610,ØYSTESE,VL
5612,STEINSTØ,VL
5614,ÅLVIK,VL
5620,TØRVIKBYGD,VL
5626,KYSNESSTRAND,VL
5627,JONDAL,VL
5628,HERAND,VL
5629,JONDAL,VL
5630,STRANDEBARM,VL
5631,STRANDEBARM,VL
5632,OMASTRAND,VL
5633,OMASTRAND,VL
5635,HATLESTRAND,VL
5636,VARALDSØY,VL
5637,ØLVE,VL
5640,EIKELANDSOSEN,VL
5641,FUSA,VL
5642,HOLMEFJORD,VL
5643,STRANDVIK,VL
5644,SÆVAREID,VL
5645,SÆVAREID,VL
5646,NORDTVEITGREND,VL
5647,BALDERSHEIM,VL
5648,FUSA,VL
5649,EIKELANDSOSEN,VL
5650,TYSSE,VL
5651,TYSSE,VL
5652,ÅRLAND,VL
5653,ÅRLAND,VL
5680,TYSNES,VL
5683,REKSTEREN,VL
5685,UGGDAL,VL
5687,FLATRÅKER,VL
5690,LUNDEGREND,VL
5693,ÅRBAKKA,VL
5694,ONARHEIM,VL
5695,UGGDAL,VL
5696,TYSNES,VL
5700,VOSS,VL
5701,VOSS,VL
5702,VOSS,VL
5703,VOSS,VL
5704,VOSS,VL
5705,VOSS,VL
5706,VOSS,VL
5707,EVANGER,VL
5708,VOSS,VL
5709,VOSS,VL
5710,SKULESTADMO,VL
5711,SKULESTADMO,VL
5712,VOSSESTRAND,VL
5713,VOSSESTRAND,VL
5714,VOSS,VL
5715,STALHEIM,VL
5718,MYRDAL,VL
5719,FINSE,VL
5720,STANGHELLE,VL
5721,DALEKVAM,VL
5722,DALEKVAM,VL
5723,BOLSTADØYRI,VL
5724,STANGHELLE,VL
5725,VAKSDAL,VL
5726,VAKSDAL,VL
5727,STAMNES,VL
5728,EIDSLANDET,VL
5729,MODALEN,VL
5730,ULVIK,VL
5731,ULVIK,VL
5732,MODALEN,VL
5733,GRANVIN,VL
5734,VALLAVIK,VL
5736,GRANVIN,VL
5741,AURLAND,VL
5742,FLÅM,VL
5743,FLÅM,VL
5745,AURLAND,VL
5746,UNDREDAL,VL
5747,GUDVANGEN,VL
5749,GUDVANGEN,VL
5750,ODDA,VL
5751,ODDA,VL
5752,ODDA,VL
5760,RØLDAL,VL
5763,SKARE,VL
5770,TYSSEDAL,VL
5773,HOVLAND,VL
5775,NÅ,VL
5776,NÅ,VL
5777,GRIMO,VL
5778,UTNE,VL
5779,UTNE,VL
5780,KINSARVIK,VL
5781,LOFTHUS,VL
5782,KINSARVIK,VL
5783,EIDFJORD,VL
5784,ØVRE EIDFJORD,VL
5785,VØRINGSFOSS,VL
5786,EIDFJORD,VL
5787,LOFTHUS,VL
5788,KINSARVIK,VL
5802,BERGEN,VL
5803,BERGEN,VL
5804,BERGEN,VL
5805,BERGEN,VL
5806,BERGEN,VL
5807,BERGEN,VL
5808,BERGEN,VL
5809,BERGEN,VL
5810,BERGEN,VL
5811,BERGEN,VL
5812,BERGEN,VL
5813,BERGEN,VL
5814,BERGEN,VL
5815,BERGEN,VL
5816,BERGEN,VL
5817,BERGEN,VL
5818,BERGEN,VL
5819,BERGEN,VL
5820,BERGEN,VL
5821,BERGEN,VL
5822,BERGEN,VL
5823,BERGEN,VL
5824,BERGEN,VL
5825,BERGEN,VL
5826,BERGEN,VL
5827,BERGEN,VL
5829,BERGEN,VL
5830,BERGEN,VL
5831,BERGEN,VL
5832,BERGEN,VL
5833,BERGEN,VL
5834,BERGEN,VL
5835,BERGEN,VL
5836,BERGEN,VL
5837,BERGEN,VL
5838,BERGEN,VL
5841,BERGEN,VL
5843,BERGEN,VL
5844,BERGEN,VL
5845,BERGEN,VL
5847,BERGEN,VL
5848,BERGEN,VL
5849,BERGEN,VL
5851,BERGEN,VL
5852,BERGEN,VL
5853,BERGEN,VL
5854,BERGEN,VL
5855,BERGEN,VL
5857,BERGEN,VL
5858,BERGEN,VL
5859,BERGEN,VL
5861,BERGEN,VL
5862,BERGEN,VL
5863,BERGEN,VL
5864,BERGEN,VL
5865,BERGEN,VL
5866,BERGEN,VL
5867,BERGEN,VL
5868,BERGEN,VL
5872,BERGEN,VL
5873,BERGEN,VL
5876,BERGEN,VL
5877,BERGEN,VL
5878,BERGEN,VL
5879,BERGEN,VL
5881,BERGEN,VL
5884,BERGEN,VL
5886,BERGEN,VL
5887,BERGEN,VL
5888,BERGEN,VL
5889,BERGEN,VL
5892,BERGEN,VL
5893,BERGEN,VL
5895,BERGEN,VL
5896,BERGEN,VL
5899,BERGEN,VL
5902,ISDALSTØ,VL
5903,ISDALSTØ,VL
5904,ISDALSTØ,VL
5906,FREKHAUG,VL
5907,ALVERSUND,VL
5908,ISDALSTØ,VL
5911,ALVERSUND,VL
5912,SEIM,VL
5913,EIKANGERVÅG,VL
5914,ISDALSTØ,VL
5915,HJELMÅS,VL
5916,ISDALSTØ,VL
5917,ROSSLAND,VL
5918,FREKHAUG,VL
5919,FREKHAUG,VL
5931,MANGER,VL
5935,BØVÅGEN,VL
5936,MANGER,VL
5937,BØVÅGEN,VL
5938,SÆBØVÅGEN,VL
5939,SLETTA,VL
5941,AUSTRHEIM,VL
5943,AUSTRHEIM,VL
5947,FEDJE,VL
5948,FEDJE,VL
5951,LINDÅS,VL
5952,FONNES,VL
5953,FONNES,VL
5954,MONGSTAD,VL
5955,LINDÅS,VL
5956,HUNDVIN,VL
5957,MYKING,VL
5960,DALSØYRA,VL
5961,BREKKE,VL
5962,BJORDAL,VL
5963,DALSØYRA,VL
5964,BREKKE,VL
5965,BJORDAL,VL
5966,EIVINDVIK,VL
5967,EIVINDVIK,VL
5970,BYRKNESØY,VL
5977,ÅNNELAND,VL
5978,MJØMNA,VL
5979,BYRKNESØY,VL
5981,MASFJORDNES,VL
5982,MASFJORDNES,VL
5983,HAUGSVÆR,VL
5984,MATREDAL,VL
5985,HAUGSVÆR,VL
5986,HOSTELAND,VL
5987,HOSTELAND,VL
5991,OSTEREIDET,VL
5993,OSTEREIDET,VL
5994,VIKANES,VL
6001,ÅLESUND,MR
6002,ÅLESUND,MR
6003,ÅLESUND,MR
6004,ÅLESUND,MR
6005,ÅLESUND,MR
6006,ÅLESUND,MR
6007,ÅLESUND,MR
6008,ÅLESUND,MR
6009,ÅLESUND,MR
6010,ÅLESUND,MR
6011,ÅLESUND,MR
6012,ÅLESUND,MR
6013,ÅLESUND,MR
6014,ÅLESUND,MR
6015,ÅLESUND,MR
6016,ÅLESUND,MR
6017,ÅLESUND,MR
6018,ÅLESUND,MR
6019,ÅLESUND,MR
6020,ÅLESUND,MR
6021,ÅLESUND,MR
6022,ÅLESUND,MR
6023,ÅLESUND,MR
6024,ÅLESUND,MR
6025,ÅLESUND,MR
6026,ÅLESUND,MR
6028,ÅLESUND,MR
6030,LANGEVÅG,MR
6034,EIDSNES,MR
6035,FISKARSTRAND,MR
6036,MAUSEIDVÅG,MR
6037,EIDSNES,MR
6039,LANGEVÅG,MR
6040,VIGRA,MR
6044,ÅLESUND,MR
6045,ÅLESUND,MR
6046,ÅLESUND,MR
6047,ÅLESUND,MR
6048,ÅLESUND,MR
6050,VALDERØYA,MR
6052,GISKE,MR
6054,GODØYA,MR
6055,GODØYA,MR
6057,ELLINGSØY,MR
6058,VALDERØYA,MR
6059,VIGRA,MR
6060,HAREID,MR
6062,BRANDAL,MR
6063,HJØRUNGAVÅG,MR
6064,HADDAL,MR
6065,ULSTEINVIK,MR
6067,ULSTEINVIK,MR
6068,EIKSUND,MR
6069,HAREID,MR
6070,TJØRVÅG,MR
6075,MOLTUSTRANDA,MR
6076,MOLTUSTRANDA,MR
6078,GJERDSVIKA,MR
6079,GURSKØY,MR
6080,GURSKØY,MR
6082,GURSKEN,MR
6083,GJERDSVIKA,MR
6084,LARSNES,MR
6085,LARSNES,MR
6086,KVAMSØY,MR
6087,KVAMSØY,MR
6088,SANDSHAMN,MR
6089,SANDSHAMN,MR
6090,FOSNAVÅG,MR
6091,FOSNAVÅG,MR
6092,FOSNAVÅG,MR
6094,LEINØY,MR
6095,BØLANDET,MR
6096,RUNDE,MR
6098,NERLANDSØY,MR
6099,FOSNAVÅG,MR
6100,VOLDA,MR
6101,VOLDA,MR
6102,VOLDA,MR
6103,VOLDA,MR
6104,VOLDA,MR
6105,VOLDA,MR
6106,VOLDA,MR
6110,AUSTEFJORDEN,MR
6120,FOLKESTAD,MR
6121,FOLKESTAD,MR
6133,LAUVSTAD,MR
6134,LAUVSTAD,MR
6138,SYVDE,MR
6139,FISKÅ,MR
6140,SYVDE,MR
6141,ROVDE,MR
6142,EIDSÅ,MR
6143,FISKÅ,MR
6144,SYLTE,MR
6146,ÅHEIM,MR
6147,ÅHEIM,MR
6149,ÅRAM,MR
6150,ØRSTA,MR
6151,ØRSTA,MR
6152,ØRSTA,MR
6153,ØRSTA,MR
6154,ØRSTA,MR
6155,ØRSTA,MR
6156,ØRSTA,MR
6160,HOVDEBYGDA,MR
6161,HOVDEBYGDA,MR
6165,SÆBØ,MR
6166,SÆBØ,MR
6170,VARTDAL,MR
6171,VARTDAL,MR
6174,BARSTADVIK,MR
6183,TRANDAL,MR
6184,STORESTANDAL,MR
6190,BJØRKE,MR
6196,NORANGSFJORDEN,MR
6200,STRANDA,MR
6201,STRANDA,MR
6210,VALLDAL,MR
6211,VALLDAL,MR
6212,LIABYGDA,MR
6213,TAFJORD,MR
6214,NORDDAL,MR
6215,EIDSDAL,MR
6216,GEIRANGER,MR
6217,GEIRANGER,MR
6218,HELLESYLT,MR
6219,HELLESYLT,MR
6220,STRAUMGJERDE,MR
6222,IKORNNES,MR
6223,IKORNNES,MR
6224,HUNDEIDVIK,MR
6230,SYKKYLVEN,MR
6238,STRAUMGJERDE,MR
6239,SYKKYLVEN,MR
6240,ØRSKOG,MR
6249,ØRSKOG,MR
6250,STORDAL,MR
6255,EIDSDAL,MR
6259,STORDAL,MR
6260,SKODJE,MR
6263,SKODJE,MR
6264,TENNFJORD,MR
6265,VATNE,MR
6270,BRATTVÅG,MR
6272,HILDRE,MR
6280,SØVIK,MR
6281,SØVIK,MR
6282,BRATTVÅG,MR
6283,VATNE,MR
6285,STOREKALVØY,MR
6286,ORTEN,MR
6287,HARØY,MR
6290,HARAMSØY,MR
6291,HARAMSØY,MR
6292,KJERSTAD,MR
6293,LONGVA,MR
6294,FJØRTOFT,MR
6295,MYKLEBOST,MR
6296,HARØY,MR
6297,SANDØY,MR
6298,ONA,MR
6300,ÅNDALSNES,MR
6301,ÅNDALSNES,MR
6310,VEBLUNGSNES,MR
6315,INNFJORDEN,MR
6320,ISFJORDEN,MR
6330,VERMA,MR
6331,VERMA,MR
6339,ISFJORDEN,MR
6350,EIDSBYGDA,MR
6360,ÅFARNES,MR
6361,ÅFARNES,MR
6363,MITTET,MR
6364,VISTDAL,MR
6365,VISTDAL,MR
6385,MÅNDALEN,MR
6386,MÅNDALEN,MR
6387,VÅGSTRANDA,MR
6388,VÅGSTRANDA,MR
6389,FIKSDAL,MR
6390,VESTNES,MR
6391,TRESFJORD,MR
6392,VIKEBUKT,MR
6393,TOMREFJORD,MR
6394,FIKSDAL,MR
6395,REKDAL,MR
6396,VIKEBUKT,MR
6397,TRESFJORD,MR
6398,TOMREFJORD,MR
6399,VESTNES,MR
6401,MOLDE,MR
6402,MOLDE,MR
6403,MOLDE,MR
6404,MOLDE,MR
6405,MOLDE,MR
6407,MOLDE,MR
6408,AUREOSEN,MR
6409,MOLDE,MR
6410,MOLDE,MR
6411,MOLDE,MR
6412,MOLDE,MR
6413,MOLDE,MR
6414,MOLDE,MR
6415,MOLDE,MR
6416,MOLDE,MR
6418,SEKKEN,MR
6419,MOLDE,MR
6420,MOLDE,MR
6421,MOLDE,MR
6422,MOLDE,MR
6423,MOLDE,MR
6425,MOLDE,MR
6429,MOLDE,MR
6430,BUD,MR
6431,BUD,MR
6433,HUSTAD,MR
6434,MOLDE,MR
6435,MOLDE,MR
6436,MOLDE,MR
6440,ELNESVÅGEN,MR
6443,TORNES I ROMSDAL,MR
6444,FARSTAD,MR
6445,MALMEFJORDEN,MR
6446,FARSTAD,MR
6447,ELNESVÅGEN,MR
6450,HJELSET,MR
6452,KLEIVE,MR
6453,KLEIVE,MR
6454,HJELSET,MR
6455,KORTGARDEN,MR
6456,SKÅLA,MR
6457,BOLSØYA,MR
6458,SKÅLA,MR
6460,EIDSVÅG I ROMSDAL,MR
6461,EIDSVÅG I ROMSDAL,MR
6462,RAUDSAND,MR
6470,ERESFJORD,MR
6471,ERESFJORD,MR
6472,EIKESDAL,MR
6475,MIDSUND,MR
6476,MIDSUND,MR
6480,AUKRA,MR
6481,AUKRA,MR
6490,EIDE,MR
6493,LYNGSTAD,MR
6494,VEVANG,MR
6499,EIDE,MR
6501,KRISTIANSUND N,MR
6502,KRISTIANSUND N,MR
6503,KRISTIANSUND N,MR
6504,KRISTIANSUND N,MR
6507,KRISTIANSUND N,MR
6508,KRISTIANSUND N,MR
6509,KRISTIANSUND N,MR
6510,KRISTIANSUND N,MR
6511,KRISTIANSUND N,MR
6512,KRISTIANSUND N,MR
6514,KRISTIANSUND N,MR
6515,KRISTIANSUND N,MR
6516,KRISTIANSUND N,MR
6517,KRISTIANSUND N,MR
6518,KRISTIANSUND N,MR
6520,FREI,MR
6521,FREI,MR
6522,FREI,MR
6523,FREI,MR
6524,FREI,MR
6525,FREI,MR
6527,FREI,MR
6528,FREI,MR
6529,FREI,MR
6530,AVERØY,MR
6531,AVERØY,MR
6532,AVERØY,MR
6533,AVERØY,MR
6538,AVERØY,MR
6539,AVERØY,MR
6546,KRISTIANSUND N,MR
6547,KRISTIANSUND N,MR
6548,KRISTIANSUND N,MR
6570,SMØLA,MR
6571,SMØLA,MR
6590,TUSTNA,MR
6591,TUSTNA,MR
6600,SUNNDALSØRA,MR
6601,SUNNDALSØRA,MR
6610,ØKSENDAL,MR
6611,FURUGRENDA,MR
6612,GRØA,MR
6613,GJØRA,MR
6614,GJØRA,MR
6620,ÅLVUNDEID,MR
6622,ÅLVUNDFJORD,MR
6623,ÅLVUNDFJORD,MR
6627,TINGVOLL,MR
6628,MEISINGSET,MR
6629,TORJULVÅGEN,MR
6630,TINGVOLL,MR
6631,BATNFJORDSØRA,MR
6632,BATNFJORDSØRA,MR
6633,GJEMNES,MR
6636,ANGVIK,MR
6637,FLEMMA,MR
6638,OSMARKA,MR
6639,TORVIKBUKT,MR
6640,KVANNE,MR
6641,TORVIKBUKT,MR
6642,STANGVIK,MR
6643,BØFJORDEN,MR
6644,BÆVERFJORD,MR
6645,TODALEN,MR
6650,SURNADAL,MR
6652,SURNADAL,MR
6653,ØVRE SURNADAL,MR
6655,VINDØLA,MR
6656,SURNADAL,MR
6657,RINDAL,TR
6658,RINDALSSKOGEN,TR
6659,RINDAL,TR
6670,ØYDEGARD,MR
6671,ØYDEGARD,MR
6674,KVISVIK,MR
6675,KVISVIK,MR
6680,HALSANAUSTAN,TR
6683,VÅGLAND,TR
6686,VALSØYBOTN,TR
6687,VALSØYFJORD,TR
6688,VÅGLAND,TR
6689,AURE,MR
6690,AURE,MR
6693,MJOSUNDET,MR
6694,FOLDFJORDEN,MR
6697,VIHALS,MR
6698,LESUND,MR
6699,KJØRSVIKBUGEN,MR
6700,MÅLØY,VL
6701,MÅLØY,VL
6702,MÅLØY,VL
6703,MÅLØY,VL
6704,DEKNEPOLLEN,VL
6707,RAUDEBERG,VL
6708,BRYGGJA,VL
6710,RAUDEBERG,VL
6711,BRYGGJA,VL
6713,ALMENNINGEN,VL
6714,SILDA,VL
6715,BARMEN,VL
6716,HUSEVÅG,VL
6717,FLATRAKET,VL
6718,DEKNEPOLLEN,VL
6719,SKATESTRAUMEN,VL
6721,SVELGEN,VL
6723,SVELGEN,VL
6726,BREMANGER,VL
6727,BREMANGER,VL
6728,KALVÅG,VL
6729,KALVÅG,VL
6730,DAVIK,VL
6734,RUGSUND,VL
6737,ÅLFOTEN,VL
6740,SELJE,VL
6741,SELJE,VL
6750,STADLANDET,VL
6751,STADLANDET,VL
6761,HORNINDAL,MR
6763,HORNINDAL,MR
6770,NORDFJORDEID,VL
6771,NORDFJORDEID,VL
6772,NORDFJORDEID,VL
6773,NORDFJORDEID,VL
6774,NORDFJORDEID,VL
6776,KJØLSDALEN,VL
6777,STÅRHEIM,VL
6778,LOTE,VL
6779,HOLMØYANE,VL
6781,STRYN,VL
6782,STRYN,VL
6783,STRYN,VL
6784,OLDEN,VL
6788,OLDEN,VL
6789,LOEN,VL
6790,LOEN,VL
6791,OLDEDALEN,VL
6792,BRIKSDALSBRE,VL
6793,INNVIK,VL
6794,INNVIK,VL
6795,BLAKSÆTER,VL
6796,HOPLAND,VL
6797,UTVIK,VL
6798,HJELLEDALEN,VL
6799,OPPSTRYN,VL
6800,FØRDE,VL
6801,FØRDE,VL
6802,FØRDE,VL
6803,FØRDE,VL
6804,FØRDE,VL
6805,FØRDE,VL
6806,NAUSTDAL,VL
6807,FØRDE,VL
6808,FØRDE,VL
6809,FØRDE,VL
6810,FØRDE,VL
6811,FØRDE,VL
6812,FØRDE,VL
6813,FØRDE,VL
6814,FØRDE,VL
6815,FØRDE,VL
6817,NAUSTDAL,VL
6818,HAUKEDALEN,VL
6819,FØRDE,VL
6820,FØRDE,VL
6821,SANDANE,VL
6822,SANDANE,VL
6823,SANDANE,VL
6826,BYRKJELO,VL
6827,BREIM,VL
6828,HESTENESØYRA,VL
6829,HYEN,VL
6830,BYRKJELO,VL
6831,HYEN,VL
6841,SKEI I JØLSTER,VL
6843,SKEI I JØLSTER,VL
6844,VASSENDEN,VL
6845,FJÆRLAND,VL
6847,VASSENDEN,VL
6848,FJÆRLAND,VL
6849,KAUPANGER,VL
6851,SOGNDAL,VL
6852,SOGNDAL,VL
6853,SOGNDAL,VL
6854,KAUPANGER,VL
6855,FRØNNINGEN,VL
6856,SOGNDAL,VL
6857,SOGNDAL,VL
6858,FARDAL,VL
6859,SLINDA,VL
6861,LEIKANGER,VL
6863,LEIKANGER,VL
6866,GAUPNE,VL
6867,HAFSLO,VL
6868,GAUPNE,VL
6869,HAFSLO,VL
6870,ORNES,VL
6871,JOSTEDAL,VL
6872,LUSTER,VL
6873,MARIFJØRA,VL
6874,LUSTER,VL
6875,HØYHEIMSVIK,VL
6876,SKJOLDEN,VL
6877,FORTUN,VL
6878,VEITASTROND,VL
6879,SOLVORN,VL
6881,ÅRDALSTANGEN,VL
6882,ØVRE ÅRDAL,VL
6884,ØVRE ÅRDAL,VL
6885,ÅRDALSTANGEN,VL
6886,LÆRDAL,VL
6887,LÆRDAL,VL
6888,BORGUND,VL
6891,VIK I SOGN,VL
6893,VIK I SOGN,VL
6894,VANGSNES,VL
6895,FEIOS,VL
6896,FRESVIK,VL
6898,BALESTRAND,VL
6899,BALESTRAND,VL
6900,FLORØ,VL
6901,FLORØ,VL
6902,FLORØ,VL
6903,FLORØ,VL
6905,FLORØ,VL
6906,FLORØ,VL
6907,FLORØ,VL
6908,FLORØ,VL
6909,FLORØ,VL
6910,FLORØ,VL
6912,KINN,VL
6913,FLORØ,VL
6914,SVANØYBUKT,VL
6915,ROGNALDSVÅG,VL
6916,BAREKSTAD,VL
6917,BATALDEN,VL
6918,SØR-SKORPA,VL
6919,TANSØY,VL
6921,HARDBAKKE,VL
6924,HARDBAKKE,VL
6926,KRAKHELLA,VL
6927,YTRØYGREND,VL
6928,KOLGROV,VL
6929,HERSVIKBYGDA,VL
6940,EIKEFJORD,VL
6941,EIKEFJORD,VL
6942,SVORTEVIK,VL
6944,STAVANG,VL
6946,LAVIK,VL
6947,LAVIK,VL
6951,HYLLESTAD,VL
6953,LEIRVIK I SOGN,VL
6957,HYLLESTAD,VL
6958,SØRBØVÅG,VL
6959,SØRBØVÅG,VL
6961,DALE I SUNNFJORD,VL
6963,DALE I SUNNFJORD,VL
6964,KORSSUND,VL
6966,GUDDAL,VL
6967,HELLEVIK I FJALER,VL
6968,FLEKKE,VL
6969,STRAUMSNES,VL
6971,SANDE I SUNNFJORD,VL
6973,SANDE I SUNNFJORD,VL
6975,SKILBREI,VL
6976,BYGSTAD,VL
6977,BYGSTAD,VL
6978,VIKSDALEN,VL
6980,ASKVOLL,VL
6982,HOLMEDAL,VL
6983,KVAMMEN,VL
6984,STONGFJORDEN,VL
6985,ATLØY,VL
6986,VÆRLANDET,VL
6987,BULANDET,VL
6988,ASKVOLL,VL
6991,HØYANGER,VL
6993,HØYANGER,VL
6994,NESSANE,VL
6995,KYRKJEBØ,VL
6996,VADHEIM,VL
6997,VADHEIM,VL
7003,TRONDHEIM,TR
7004,TRONDHEIM,TR
7005,TRONDHEIM,TR
7006,TRONDHEIM,TR
7010,TRONDHEIM,TR
7011,TRONDHEIM,TR
7012,TRONDHEIM,TR
7013,TRONDHEIM,TR
7014,TRONDHEIM,TR
7015,TRONDHEIM,TR
7016,TRONDHEIM,TR
7017,TRONDHEIM,TR
7018,TRONDHEIM,TR
7019,TRONDHEIM,TR
7020,TRONDHEIM,TR
7021,TRONDHEIM,TR
7022,TRONDHEIM,TR
7023,TRONDHEIM,TR
7024,TRONDHEIM,TR
7025,TRONDHEIM,TR
7026,TRONDHEIM,TR
7027,TRONDHEIM,TR
7028,TRONDHEIM,TR
7029,TRONDHEIM,TR
7030,TRONDHEIM,TR
7031,TRONDHEIM,TR
7032,TRONDHEIM,TR
7033,TRONDHEIM,TR
7034,TRONDHEIM,TR
7035,TRONDHEIM,TR
7036,TRONDHEIM,TR
7037,TRONDHEIM,TR
7038,TRONDHEIM,TR
7039,TRONDHEIM,TR
7040,TRONDHEIM,TR
7041,TRONDHEIM,TR
7042,TRONDHEIM,TR
7043,TRONDHEIM,TR
7044,TRONDHEIM,TR
7045,TRONDHEIM,TR
7046,TRONDHEIM,TR
7047,TRONDHEIM,TR
7048,TRONDHEIM,TR
7049,TRONDHEIM,TR
7050,TRONDHEIM,TR
7051,TRONDHEIM,TR
7052,TRONDHEIM,TR
7053,RANHEIM,TR
7054,RANHEIM,TR
7055,RANHEIM,TR
7056,RANHEIM,TR
7057,JONSVATNET,TR
7058,CHARLOTTENLUND,TR
7059,JAKOBSLI,TR
7060,CHARLOTTENLUND,TR
7061,TRONDHEIM,TR
7066,TRONDHEIM,TR
7067,TRONDHEIM,TR
7068,TRONDHEIM,TR
7069,TRONDHEIM,TR
7070,BOSBERG,TR
7071,TRONDHEIM,TR
7072,HEIMDAL,TR
7074,SPONGDAL,TR
7075,TILLER,TR
7078,SAUPSTAD,TR
7079,FLATÅSEN,TR
7080,HEIMDAL,TR
7081,SJETNEMARKA,TR
7082,KATTEM,TR
7083,LEINSTRAND,TR
7088,HEIMDAL,TR
7089,HEIMDAL,TR
7091,TILLER,TR
7092,TILLER,TR
7093,TILLER,TR
7097,SAUPSTAD,TR
7098,SAUPSTAD,TR
7099,FLATÅSEN,TR
7100,RISSA,TR
7101,RISSA,TR
7105,STADSBYGD,TR
7110,FEVÅG,TR
7111,HASSELVIKA,TR
7112,HASSELVIKA,TR
7113,HUSBYSJØEN,TR
7114,RÅKVÅG,TR
7115,HUSBYSJØEN,TR
7116,RÅKVÅG,TR
7119,STADSBYGD,TR
7120,LEKSVIK,TR
7121,LEKSVIK,TR
7125,VANVIKAN,TR
7126,VANVIKAN,TR
7127,OPPHAUG,TR
7129,BREKSTAD,TR
7130,BREKSTAD,TR
7140,OPPHAUG,TR
7142,UTHAUG,TR
7150,STORFOSNA,TR
7151,STORFOSNA,TR
7152,KRÅKVÅG,TR
7153,GARTEN,TR
7156,LEKSA,TR
7159,BJUGN,TR
7160,BJUGN,TR
7164,LYSØYSUNDET,TR
7165,OKSVOLL,TR
7166,TARVA,TR
7167,VALLERSUND,TR
7168,LYSØYSUNDET,TR
7169,ÅFJORD,TR
7170,ÅFJORD,TR
7174,REVSNES,TR
7175,STOKKØY,TR
7176,LINESØYA,TR
7177,REVSNES,TR
7178,STOKKØY,TR
7180,ROAN,TR
7181,ROAN,TR
7190,BESSAKER,TR
7194,BRANDSFJORD,TR
7200,KYRKSÆTERØRA,TR
7201,KYRKSÆTERØRA,TR
7203,VINJEØRA,TR
7206,HELLANDSJØEN,TR
7207,YTRE SNILLFJORD,TR
7211,KORSVEGEN,TR
7212,KORSVEGEN,TR
7213,GÅSBAKKEN,TR
7221,MELHUS,TR
7223,MELHUS,TR
7224,MELHUS,TR
7227,GIMSE,TR
7228,KVÅL,TR
7231,LUNDAMO,TR
7232,LUNDAMO,TR
7234,LER,TR
7235,LER,TR
7236,HOVIN I GAULDAL,TR
7238,HOVIN I GAULDAL,TR
7239,HITRA,TR
7240,HITRA,TR
7241,ANSNES,TR
7242,KNARRLAGSUND,TR
7243,KVENVÆR,TR
7244,KNARRLAGSUND,TR
7245,KVENVÆR,TR
7246,SANDSTAD,TR
7247,HESTVIKA,TR
7250,MELANDSJØ,TR
7252,DOLMØY,TR
7255,SUNDLANDET,TR
7256,HEMNSKJELA,TR
7257,SNILLFJORD,TR
7259,SNILLFJORD,TR
7260,SISTRANDA,TR
7261,SISTRANDA,TR
7263,HAMARVIK,TR
7264,HAMARVIK,TR
7266,KVERVA,TR
7267,KVERVA,TR
7268,TITRAN,TR
7270,DYRVIK,TR
7273,NORDDYRØY,TR
7274,NORDDYRØY,TR
7280,SULA,TR
7282,BOGØYVÆR,TR
7284,MAUSUND,TR
7285,GJÆSINGEN,TR
7286,SØRBURØY,TR
7287,SAUØY,TR
7288,SOKNEDAL,TR
7289,SOKNEDAL,TR
7290,STØREN,TR
7291,STØREN,TR
7295,ROGNES,TR
7298,BUDALEN,TR
7300,ORKANGER,TR
7301,ORKANGER,TR
7302,ORKANGER,TR
7303,ORKANGER,TR
7310,GJØLME,TR
7315,LENSVIK,TR
7316,LENSVIK,TR
7318,AGDENES,TR
7319,AGDENES,TR
7320,FANNREM,TR
7321,FANNREM,TR
7327,SVORKMO,TR
7329,SVORKMO,TR
7331,LØKKEN VERK,TR
7332,LØKKEN VERK,TR
7333,STORÅS,TR
7334,STORÅS,TR
7335,JERPSTAD,TR
7336,MELDAL,TR
7338,MELDAL,TR
7340,OPPDAL,TR
7341,OPPDAL,TR
7342,LØNSET,TR
7343,VOGNILL,TR
7344,OPPDAL,TR
7345,DRIVDALEN,TR
7346,OPPDAL,TR
7347,OPPDAL,TR
7350,BUVIKA,TR
7351,BUVIKA,TR
7353,BØRSA,TR
7354,VIGGJA,TR
7355,EGGKLEIVA,TR
7356,SKAUN,TR
7357,SKAUN,TR
7358,BØRSA,TR
7361,RØROS,TR
7370,BREKKEBYGD,TR
7372,GLÅMOS,TR
7374,RØROS,TR
7375,RØROS,TR
7380,ÅLEN,TR
7383,HALTDALEN,TR
7384,ÅLEN,TR
7386,SINGSÅS,TR
7387,SINGSÅS,TR
7388,SINGSÅS,TR
7391,RENNEBU,TR
7392,RENNEBU,TR
7393,RENNEBU,TR
7397,RENNEBU,TR
7398,RENNEBU,TR
7399,RENNEBU,TR
7400,TRONDHEIM,TR
7401,TRONDHEIM,TR
7402,TRONDHEIM,TR
7403,TRONDHEIM,TR
7404,TRONDHEIM,TR
7405,TRONDHEIM,TR
7406,TRONDHEIM,TR
7407,TRONDHEIM,TR
7408,TRONDHEIM,TR
7409,TRONDHEIM,TR
7410,TRONDHEIM,TR
7411,TRONDHEIM,TR
7412,TRONDHEIM,TR
7413,TRONDHEIM,TR
7414,TRONDHEIM,TR
7415,TRONDHEIM,TR
7416,TRONDHEIM,TR
7417,TRONDHEIM,TR
7418,TRONDHEIM,TR
7419,TRONDHEIM,TR
7420,TRONDHEIM,TR
7421,TRONDHEIM,TR
7422,TRONDHEIM,TR
7424,TRONDHEIM,TR
7425,TRONDHEIM,TR
7427,TRONDHEIM,TR
7428,TRONDHEIM,TR
7429,TRONDHEIM,TR
7430,TRONDHEIM,TR
7431,TRONDHEIM,TR
7432,TRONDHEIM,TR
7433,TRONDHEIM,TR
7434,TRONDHEIM,TR
7435,TRONDHEIM,TR
7436,TRONDHEIM,TR
7437,TRONDHEIM,TR
7438,TRONDHEIM,TR
7439,TRONDHEIM,TR
7440,TRONDHEIM,TR
7441,TRONDHEIM,TR
7442,TRONDHEIM,TR
7443,TRONDHEIM,TR
7444,TRONDHEIM,TR
7445,TRONDHEIM,TR
7446,TRONDHEIM,TR
7447,TRONDHEIM,TR
7448,TRONDHEIM,TR
7449,TRONDHEIM,TR
7450,TRONDHEIM,TR
7451,TRONDHEIM,TR
7452,TRONDHEIM,TR
7453,TRONDHEIM,TR
7454,TRONDHEIM,TR
7455,TRONDHEIM,TR
7456,TRONDHEIM,TR
7457,TRONDHEIM,TR
7458,TRONDHEIM,TR
7459,TRONDHEIM,TR
7462,TRONDHEIM,TR
7463,TRONDHEIM,TR
7464,TRONDHEIM,TR
7465,TRONDHEIM,TR
7466,TRONDHEIM,TR
7467,TRONDHEIM,TR
7468,TRONDHEIM,TR
7469,TRONDHEIM,TR
7470,TRONDHEIM,TR
7471,TRONDHEIM,TR
7472,TRONDHEIM,TR
7473,TRONDHEIM,TR
7474,TRONDHEIM,TR
7475,TRONDHEIM,TR
7476,TRONDHEIM,TR
7477,TRONDHEIM,TR
7478,TRONDHEIM,TR
7479,TRONDHEIM,TR
7480,TRONDHEIM,TR
7481,TRONDHEIM,TR
7482,TRONDHEIM,TR
7483,TRONDHEIM,TR
7484,TRONDHEIM,TR
7485,TRONDHEIM,TR
7486,TRONDHEIM,TR
7487,TRONDHEIM,TR
7488,TRONDHEIM,TR
7489,TRONDHEIM,TR
7490,TRONDHEIM,TR
7491,TRONDHEIM,TR
7492,TRONDHEIM,TR
7493,TRONDHEIM,TR
7494,TRONDHEIM,TR
7495,TRONDHEIM,TR
7496,TRONDHEIM,TR
7497,TRONDHEIM,TR
7498,TRONDHEIM,TR
7500,STJØRDAL,TR
7501,STJØRDAL,TR
7502,STJØRDAL,TR
7503,STJØRDAL,TR
7504,STJØRDAL,TR
7505,STJØRDAL,TR
7506,STJØRDAL,TR
7507,STJØRDAL,TR
7508,STJØRDAL,TR
7509,STJØRDAL,TR
7510,SKATVAL,TR
7511,SKATVAL,TR
7512,STJØRDAL,TR
7513,STJØRDAL,TR
7514,STJØRDAL,TR
7517,HELL,TR
7519,ELVARLI,TR
7520,HEGRA,TR
7525,FLORNES,TR
7529,HEGRA,TR
7530,MERÅKER,TR
7531,MERÅKER,TR
7533,KOPPERÅ,TR
7540,KLÆBU,TR
7541,KLÆBU,TR
7549,TANEM,TR
7550,HOMMELVIK,TR
7551,HOMMELVIK,TR
7560,VIKHAMMER,TR
7562,SAKSVIK,TR
7563,MALVIK,TR
7566,VIKHAMMER,TR
7570,HELL,TR
7580,SELBU,TR
7581,SELBU,TR
7583,SELBU,TR
7584,SELBUSTRAND,TR
7590,TYDAL,TR
7591,TYDAL,TR
7596,FLAKNAN,TR
7600,LEVANGER,TR
7601,LEVANGER,TR
7602,LEVANGER,TR
7603,LEVANGER,TR
7604,LEVANGER,TR
7605,LEVANGER,TR
7606,LEVANGER,TR
7607,LEVANGER,TR
7608,LEVANGER,TR
7609,LEVANGER,TR
7610,LEVANGER,TR
7619,SKOGN,TR
7620,SKOGN,TR
7622,MARKABYGDA,TR
7623,RONGLAN,TR
7624,EKNE,TR
7629,YTTERØY,TR
7630,ÅSEN,TR
7631,ÅSEN,TR
7632,ÅSENFJORD,TR
7633,FROSTA,TR
7634,FROSTA,TR
7650,VERDAL,TR
7651,VERDAL,TR
7652,VERDAL,TR
7653,VERDAL,TR
7654,VERDAL,TR
7655,VERDAL,TR
7656,VERDAL,TR
7657,VERDAL,TR
7658,VERDAL,TR
7660,VUKU,TR
7661,VUKU,TR
7670,INDERØY,TR
7671,INDERØY,TR
7672,INDERØY,TR
7690,MOSVIK,TR
7691,MOSVIK,TR
7701,STEINKJER,TR
7702,STEINKJER,TR
7703,STEINKJER,TR
7704,STEINKJER,TR
7705,STEINKJER,TR
7707,STEINKJER,TR
7708,STEINKJER,TR
7709,STEINKJER,TR
7710,SPARBU,TR
7711,STEINKJER,TR
7712,STEINKJER,TR
7713,STEINKJER,TR
7714,STEINKJER,TR
7715,STEINKJER,TR
7716,STEINKJER,TR
7717,STEINKJER,TR
7718,STEINKJER,TR
7724,STEINKJER,TR
7725,STEINKJER,TR
7726,STEINKJER,TR
7729,STEINKJER,TR
7730,BEITSTAD,TR
7732,STEINKJER,TR
7733,SPARBU,TR
7734,STEINKJER,TR
7735,STEINKJER,TR
7736,STEINKJER,TR
7737,STEINKJER,TR
7738,STEINKJER,TR
7739,BEITSTAD,TR
7740,STEINSDALEN,TR
7741,STEINSDALEN,TR
7742,YTTERVÅG,TR
7744,HEPSØY,TR
7745,OPPLAND,TR
7746,HASVÅG,TR
7748,SETER,TR
7750,NAMDALSEID,TR
7751,NAMDALSEID,TR
7760,SNÅSA,TR
7761,SNÅSA,TR
7770,FLATANGER,TR
7771,FLATANGER,TR
7777,NORD-STATLAND,TR
7790,MALM,TR
7791,MALM,TR
7795,FOLLAFOSS,TR
7796,FOLLAFOSS,TR
7797,VERRABOTN,TR
7800,NAMSOS,TR
7801,NAMSOS,TR
7802,NAMSOS,TR
7803,NAMSOS,TR
7804,NAMSOS,TR
7805,NAMSOS,TR
7808,NAMSOS,TR
7810,NAMSOS,TR
7817,SALSNES,TR
7818,LUND,TR
7819,FOSSLANDSOSEN,TR
7820,SPILLUM,TR
7821,SPILLUM,TR
7822,BANGSUND,TR
7823,BANGSUND,TR
7856,JØA,TR
7860,SKAGE I NAMDALEN,TR
7863,OVERHALLA,TR
7864,OVERHALLA,TR
7869,SKAGE I NAMDALEN,TR
7870,GRONG,TR
7871,GRONG,TR
7873,HARRAN,TR
7874,HARRAN,TR
7876,KONGSMOEN,TR
7877,HØYLANDET,TR
7878,HØYLANDET,TR
7881,NORDLI,TR
7882,NORDLI,TR
7884,SØRLI,TR
7885,SØRLI,TR
7890,NAMSSKOGAN,TR
7891,NAMSSKOGAN,TR
7892,TRONES,TR
7893,SKOROVATN,TR
7896,BREKKVASSELV,TR
7897,LIMINGEN,TR
7898,LIMINGEN,TR
7900,RØRVIK,TR
7901,RØRVIK,TR
7902,RØRVIK,TR
7924,AUSTAFJORD,TR
7940,OTTERSØY,TR
7941,OTTERSØY,TR
7944,INDRE NÆRØY,TR
7950,ABELVÆR,TR
7960,SALSBRUKET,TR
7970,KOLVEREID,TR
7971,KOLVEREID,TR
7973,GJERDINGA,TR
7979,TERRÅK,NL
7980,TERRÅK,NL
7981,HARANGSFJORD,NL
7982,BINDALSEIDET,NL
7983,BINDALSEIDET,NL
7985,FOLDEREID,TR
7986,FOLDEREID,TR
7990,NAUSTBUKTA,TR
7993,GUTVIK,TR
7994,LEKA,TR
7995,LEKA,TR
8001,BODØ,NL
8002,BODØ,NL
8003,BODØ,NL
8004,BODØ,NL
8005,BODØ,NL
8006,BODØ,NL
8007,BODØ,NL
8008,BODØ,NL
8009,BODØ,NL
8010,BODØ,NL
8011,BODØ,NL
8012,BODØ,NL
8013,BODØ,NL
8014,BODØ,NL
8015,BODØ,NL
8016,BODØ,NL
8019,BODØ,NL
8020,BODØ,NL
8021,BODØ,NL
8022,BODØ,NL
8023,BODØ,NL
8025,BODØ,NL
8026,BODØ,NL
8027,BODØ,NL
8028,BODØ,NL
8029,BODØ,NL
8030,BODØ,NL
8031,BODØ,NL
8037,BODØ,NL
8038,BODØ,NL
8041,BODØ,NL
8047,BODØ,NL
8048,BODØ,NL
8049,BODØ,NL
8050,TVERLANDET,NL
8056,SALTSTRAUMEN,NL
8057,SALTSTRAUMEN,NL
8058,TVERLANDET,NL
8062,VÆRØY,NL
8063,VÆRØY,NL
8064,RØST,NL
8065,RØST,NL
8070,BODØ,NL
8071,BODØ,NL
8072,BODØ,NL
8073,BODØ,NL
8074,BODØ,NL
8075,BODØ,NL
8076,BODØ,NL
8079,BODØ,NL
8084,BODØ,NL
8085,BODØ,NL
8086,BODØ,NL
8087,BODØ,NL
8088,BODØ,NL
8089,BODØ,NL
8091,BODØ,NL
8092,BODØ,NL
8093,KJERRINGØY,NL
8094,FLEINVÆR,NL
8095,HELLIGVÆR,NL
8096,BLIKSVÆR,NL
8097,GIVÆR,NL
8098,LANDEGODE,NL
8099,JAN MAYEN,
8100,MISVÆR,NL
8102,SKJERSTAD,NL
8103,BREIVIK I SALTEN,NL
8108,MISVÆR,NL
8110,MOLDJORD,NL
8114,TOLLÅ,NL
8118,MOLDJORD,NL
8120,NYGÅRDSJØEN,NL
8128,YTRE BEIARN,NL
8130,SANDHORNØY,NL
8134,SØRARNØY,NL
8135,SØRARNØY,NL
8136,NORDARNØY,NL
8138,INNDYR,NL
8140,INNDYR,NL
8145,STORVIK,NL
8146,REIPÅ,NL
8149,NEVERDAL,NL
8150,ØRNES,NL
8151,ØRNES,NL
8157,MELØY,NL
8158,BOLGA,NL
8159,STØTT,NL
8160,GLOMFJORD,NL
8161,GLOMFJORD,NL
8168,ENGAVÅGEN,NL
8170,ENGAVÅGEN,NL
8178,HALSA,NL
8179,HALSA,NL
8181,MYKEN,NL
8182,MELFJORDBOTN,NL
8183,VÅGAHOLMEN,NL
8184,ÅGSKARDET,NL
8185,VÅGAHOLMEN,NL
8186,TJONGSFJORDEN,NL
8187,JEKTVIK,NL
8188,NORDVERNES,NL
8189,GJERSVIKGRENDA,NL
8190,SØRFJORDEN,NL
8192,JEKTVIK,NL
8193,RØDØY,NL
8195,GJERØY,NL
8196,SELSØYVIK,NL
8197,STORSELSØY,NL
8198,NORDNESØY,NL
8200,FAUSKE,NL
8201,FAUSKE,NL
8202,FAUSKE,NL
8203,FAUSKE,NL
8205,FAUSKE,NL
8206,FAUSKE,NL
8207,FAUSKE,NL
8208,FAUSKE,NL
8209,FAUSKE,NL
8210,FAUSKE,NL
8211,FAUSKE,NL
8214,FAUSKE,NL
8215,VALNESFJORD,NL
8218,FAUSKE,NL
8219,FAUSKE,NL
8220,RØSVIK,NL
8226,STRAUMEN,NL
8230,SULITJELMA,NL
8231,SULITJELMA,NL
8232,STRAUMEN,NL
8233,VALNESFJORD,NL
8250,ROGNAN,NL
8251,ROGNAN,NL
8252,ROGNAN,NL
8253,ROGNAN,NL
8255,RØKLAND,NL
8256,RØKLAND,NL
8260,INNHAVET,NL
8261,INNHAVET,NL
8264,ENGAN,NL
8266,MØRSVIKBOTN,NL
8270,DRAG,NL
8271,DRAG,NL
8273,NEVERVIK,NL
8274,MUSKEN,NL
8275,STORJORD I TYSFJORD,NL
8276,ULVSVÅG,NL
8278,STORÅ,NL
8281,LEINESFJORD,NL
8283,LEINESFJORD,NL
8285,LEINES,NL
8286,NORDFOLD,NL
8287,ENGELØYA,NL
8288,BOGØY,NL
8289,ENGELØYA,NL
8290,SKUTVIK,NL
8294,HAMARØY,NL
8297,TRANØY,NL
8298,HAMARØY,NL
8300,SVOLVÆR,NL
8301,SVOLVÆR,NL
8305,SVOLVÆR,NL
8309,KABELVÅG,NL
8310,KABELVÅG,NL
8311,HENNINGSVÆR,NL
8312,HENNINGSVÆR,NL
8313,KLEPPSTAD,NL
8314,GIMSØYSAND,NL
8315,LAUKVIK,NL
8316,LAUPSTAD,NL
8317,STRØNSTAD,NL
8320,SKROVA,NL
8322,BRETTESNES,NL
8323,STORFJELL,NL
8324,DIGERMULEN,NL
8325,TENGELFJORD,NL
8326,MYRLAND,NL
8328,STORMOLLA,NL
8340,STAMSUND,NL
8352,SENNESVIK,NL
8357,VALBERG,NL
8360,BØSTAD,NL
8361,BØSTAD,NL
8370,LEKNES,NL
8372,GRAVDAL,NL
8373,BALLSTAD,NL
8374,BALLSTAD,NL
8376,LEKNES,NL
8377,GRAVDAL,NL
8378,STAMSUND,NL
8380,RAMBERG,NL
8382,NAPP,NL
8384,SUND I LOFOTEN,NL
8385,MØLNARODDEN,NL
8387,FREDVANG,NL
8388,RAMBERG,NL
8390,REINE,NL
8392,SØRVÅGEN,NL
8393,SØRVÅGEN,NL
8398,REINE,NL
8400,SORTLAND,NL
8401,SORTLAND,NL
8402,SORTLAND,NL
8403,SORTLAND,NL
8404,SORTLAND,NL
8405,SORTLAND,NL
8406,SORTLAND,NL
8407,SORTLAND,NL
8408,SORTLAND,NL
8409,GULLESFJORD,TRS
8410,LØDINGEN,NL
8411,LØDINGEN,NL
8412,VESTBYGD,NL
8413,KVITNES,NL
8414,HENNES,NL
8415,SORTLAND,NL
8416,SORTLAND,NL
8419,SORTLAND,NL
8426,BARKESTAD,NL
8428,TUNSTAD,NL
8430,MYRE,NL
8432,ALSVÅG,NL
8438,STØ,NL
8439,MYRE,NL
8445,MELBU,NL
8447,LONKAN,NL
8450,STOKMARKNES,NL
8455,STOKMARKNES,NL
8459,MELBU,NL
8465,STRAUMSJØEN,NL
8469,BØ I VESTERÅLEN,NL
8470,BØ I VESTERÅLEN,NL
8475,STRAUMSJØEN,NL
8480,ANDENES,NL
8481,BLEIK,NL
8483,ANDENES,NL
8484,RISØYHAMN,NL
8485,DVERBERG,NL
8488,NØSS,NL
8489,NORDMELA,NL
8493,RISØYHAMN,NL
8501,NARVIK,NL
8502,NARVIK,NL
8503,NARVIK,NL
8504,NARVIK,NL
8505,NARVIK,NL
8506,NARVIK,NL
8507,NARVIK,NL
8508,NARVIK,NL
8509,NARVIK,NL
8510,NARVIK,NL
8512,NARVIK,NL
8513,ANKENES,NL
8514,NARVIK,NL
8515,NARVIK,NL
8516,NARVIK,NL
8517,NARVIK,NL
8518,NARVIK,NL
8519,NARVIK,NL
8520,ANKENES,NL
8521,ANKENES,NL
8522,BEISFJORD,NL
8523,SKJOMEN,NL
8530,BJERKVIK,NL
8531,BJERKVIK,NL
8533,BOGEN I OFOTEN,NL
8534,LILAND,NL
8535,TÅRSTAD,NL
8536,EVENES,NL
8539,BOGEN I OFOTEN,NL
8540,BALLANGEN,NL
8543,KJELDEBOTN,NL
8546,BALLANGEN,NL
8590,KJØPSVIK,NL
8591,KJØPSVIK,NL
8601,MO I RANA,NL
8602,MO I RANA,NL
8603,MO I RANA,NL
8604,MO I RANA,NL
8607,MO I RANA,NL
8609,MO I RANA,NL
8610,MO I RANA,NL
8611,MO I RANA,NL
8613,MO I RANA,NL
8614,MO I RANA,NL
8615,SKONSENG,NL
8616,MO I RANA,NL
8617,DALSGRENDA,NL
8618,MO I RANA,NL
8619,MO I RANA,NL
8622,MO I RANA,NL
8624,MO I RANA,NL
8626,MO I RANA,NL
8630,STORFORSHEIA,NL
8638,STORFORSHEIA,NL
8640,HEMNESBERGET,NL
8641,HEMNESBERGET,NL
8642,FINNEIDFJORD,NL
8643,BJERKA,NL
8644,BJERKA,NL
8646,KORGEN,NL
8647,BLEIKVASSLIA,NL
8648,KORGEN,NL
8651,MOSJØEN,NL
8652,MOSJØEN,NL
8654,MOSJØEN,NL
8655,MOSJØEN,NL
8656,MOSJØEN,NL
8657,MOSJØEN,NL
8658,MOSJØEN,NL
8659,MOSJØEN,NL
8660,MOSJØEN,NL
8661,MOSJØEN,NL
8663,MOSJØEN,NL
8664,MOSJØEN,NL
8665,MOSJØEN,NL
8666,MOSJØEN,NL
8672,ELSFJORD,NL
8681,TROFORS,NL
8682,TROFORS,NL
8683,TROFORS,NL
8684,TROFORS,NL
8685,TROFORS,NL
8691,HATTFJELLDAL,NL
8692,HATTFJELLDAL,NL
8693,HATTFJELLDAL,NL
8694,HATTFJELLDAL,NL
8695,HATTFJELLDAL,NL
8696,HATTFJELLDAL,NL
8700,NESNA,NL
8701,NESNA,NL
8704,NESNASTRANDA,NL
8705,STRANDLANDET,NL
8720,VIKHOLMEN,NL
8723,HUSBY,NL
8724,SAURA,NL
8725,UTSKARPEN,NL
8730,BRATLAND,NL
8732,ALDRA,NL
8733,STUVLAND,NL
8735,STOKKVÅGEN,NL
8740,NORD-SOLVÆR,NL
8742,SELVÆR,NL
8743,INDRE KVARØY,NL
8750,TONNES,NL
8752,KONSVIKOSEN,NL
8754,ØRESVIK,NL
8762,SLENESET,NL
8764,LOVUND,NL
8766,LURØY,NL
8770,TRÆNA,NL
8800,SANDNESSJØEN,NL
8801,SANDNESSJØEN,NL
8802,SANDNESSJØEN,NL
8803,SANDNESSJØEN,NL
8804,SANDNESSJØEN,NL
8805,SANDNESSJØEN,NL
8809,SANDNESSJØEN,NL
8813,LØKTA,NL
8820,DØNNA,NL
8827,DØNNA,NL
8830,VANDVE,NL
8842,BRASØY,NL
8844,SANDVÆR,NL
8850,HERØY,NL
8851,HERØY,NL
8852,HERØY,NL
8854,AUSTBØ,NL
8860,TJØTTA,NL
8861,TJØTTA,NL
8865,TRO,NL
8866,MINDLANDET,NL
8870,VISTHUS,NL
8880,BÆRØYVÅGEN,NL
8890,LEIRFJORD,NL
8891,LEIRFJORD,NL
8892,SUNDØY,NL
8897,BARDAL,NL
8900,BRØNNØYSUND,NL
8901,BRØNNØYSUND,NL
8902,BRØNNØYSUND,NL
8904,BRØNNØYSUND,NL
8905,BRØNNØYSUND,NL
8906,BRØNNØYSUND,NL
8907,BRØNNØYSUND,NL
8908,BRØNNØYSUND,NL
8909,BRØNNØYSUND,NL
8910,BRØNNØYSUND,NL
8920,SØMNA,NL
8921,SØMNA,NL
8922,SØMNA,NL
8960,VELFJORD,NL
8961,VELFJORD,NL
8976,VEVELSTAD,NL
8977,VEVELSTAD,NL
8981,VEGA,NL
8982,VEGA,NL
8983,VEGA,NL
8984,VEGA,NL
8985,YLVINGEN,NL
8986,VEGA,NL
9006,TROMSØ,TRS
9007,TROMSØ,TRS
9008,TROMSØ,TRS
9009,TROMSØ,TRS
9010,TROMSØ,TRS
9011,TROMSØ,TRS
9012,TROMSØ,TRS
9013,TROMSØ,TRS
9014,TROMSØ,TRS
9015,TROMSØ,TRS
9016,TROMSØ,TRS
9017,TROMSØ,TRS
9018,TROMSØ,TRS
9019,TROMSØ,TRS
9020,TROMSDALEN,TRS
9021,TROMSDALEN,TRS
9022,KROKELVDALEN,TRS
9023,KROKELVDALEN,TRS
9024,TOMASJORD,TRS
9027,RAMFJORDBOTN,TRS
9029,TROMSDALEN,TRS
9030,SJURSNES,TRS
9034,OLDERVIK,TRS
9037,TROMSØ,TRS
9038,TROMSØ,TRS
9040,NORDKJOSBOTN,TRS
9042,LAKSVATN,TRS
9043,JØVIK,TRS
9045,LAKSELVBUKT,TRS
9046,OTEREN,TRS
9049,NORDKJOSBOTN,TRS
9050,STORSTEINNES,TRS
9055,MEISTERVIK,TRS
9056,MORTENHALS,TRS
9057,VIKRAN,TRS
9059,STORSTEINNES,TRS
9060,LYNGSEIDET,TRS
9062,FURUFLATEN,TRS
9064,SVENSBY,TRS
9068,NORD-LENANGEN,TRS
9069,LYNGSEIDET,TRS
9100,KVALØYSLETTA,TRS
9101,KVALØYSLETTA,TRS
9102,KVALØYSLETTA,TRS
9103,KVALØYA,TRS
9104,KVALØYA,TRS
9105,KVALØYA,TRS
9106,STRAUMSBUKTA,TRS
9107,KVALØYA,TRS
9108,KVALØYA,TRS
9109,KVALØYA,TRS
9110,SOMMARØY,TRS
9118,BRENSHOLMEN,TRS
9119,SOMMARØY,TRS
9120,VENGSØY,TRS
9128,TUSSØY,TRS
9130,HANSNES,TRS
9131,KÅRVIK,TRS
9132,STAKKVIK,TRS
9134,HANSNES,TRS
9135,VANNVÅG,TRS
9136,VANNAREID,TRS
9137,VANNVÅG,TRS
9138,KARLSØY,TRS
9140,REBBENES,TRS
9141,MJØLVIK,TRS
9142,SKIBOTN,TRS
9143,SKIBOTN,TRS
9144,SAMUELSBERG,TRS
9145,SAMUELSBERG,TRS
9146,OLDERDALEN,TRS
9147,BIRTAVARRE,TRS
9148,OLDERDALEN,TRS
9149,BIRTAVARRE,TRS
9151,STORSLETT,TRS
9152,SØRKJOSEN,TRS
9153,ROTSUND,TRS
9154,STORSLETT,TRS
9155,SØRKJOSEN,TRS
9156,STORSLETT,TRS
9157,STORSLETT,TRS
9158,STORSLETT,TRS
9159,HAVNNES,TRS
9161,BURFJORD,TRS
9162,SØRSTRAUMEN,TRS
9163,JØKELFJORD,TRS
9169,BURFJORD,TRS
9170,LONGYEARBYEN,
9171,LONGYEARBYEN,
9173,NY-ÅLESUND,
9174,HOPEN,
9175,SVEAGRUVA,
9176,BJØRNØYA,
9178,BARENTSBURG,
9180,SKJERVØY,TRS
9181,HAMNEIDET,TRS
9182,SEGLVIK,TRS
9184,REINFJORD,TRS
9185,SPILDRA,TRS
9186,ANDSNES,FM
9187,VALANHAMN,TRS
9189,SKJERVØY,TRS
9190,AKKARVIK,TRS
9192,ARNØYHAMN,TRS
9193,NIKKEBY,TRS
9194,LAUKSLETTA,TRS
9195,ÅRVIKSAND,TRS
9197,ULØYBUKT,TRS
9240,TROMSØ,TRS
9251,TROMSØ,TRS
9252,TROMSØ,TRS
9253,TROMSØ,TRS
9254,TROMSØ,TRS
9255,TROMSØ,TRS
9256,TROMSØ,TRS
9257,TROMSØ,TRS
9258,TROMSØ,TRS
9259,TROMSØ,TRS
9260,TROMSØ,TRS
9261,TROMSØ,TRS
9262,TROMSØ,TRS
9263,TROMSØ,TRS
9265,TROMSØ,TRS
9266,TROMSØ,TRS
9267,TROMSØ,TRS
9268,TROMSØ,TRS
9269,TROMSØ,TRS
9270,TROMSØ,TRS
9271,TROMSØ,TRS
9272,TROMSØ,TRS
9273,TROMSØ,TRS
9274,TROMSØ,TRS
9275,TROMSØ,TRS
9276,TROMSØ,TRS
9277,TROMSØ,TRS
9278,TROMSØ,TRS
9279,TROMSØ,TRS
9280,TROMSØ,TRS
9281,TROMSØ,TRS
9282,TROMSØ,TRS
9283,TROMSØ,TRS
9284,TROMSØ,TRS
9285,TROMSØ,TRS
9286,TROMSØ,TRS
9287,TROMSØ,TRS
9288,TROMSØ,TRS
9290,TROMSØ,TRS
9291,TROMSØ,TRS
9292,TROMSØ,TRS
9293,TROMSØ,TRS
9294,TROMSØ,TRS
9296,TROMSØ,TRS
9298,TROMSØ,TRS
9299,TROMSØ,TRS
9300,FINNSNES,TRS
9302,ROSSFJORDSTRAUMEN,TRS
9303,SILSAND,TRS
9304,VANGSVIK,TRS
9305,FINNSNES,TRS
9306,FINNSNES,TRS
9307,FINNSNES,TRS
9308,FINNSNES,TRS
9309,FINNSNES,TRS
9310,SØRREISA,TRS
9311,BRØSTADBOTN,TRS
9315,SØRREISA,TRS
9316,BRØSTADBOTN,TRS
9321,MOEN,TRS
9322,KARLSTAD,TRS
9325,BARDUFOSS,TRS
9326,BARDUFOSS,TRS
9329,MOEN,TRS
9334,ØVERBYGD,TRS
9335,ØVERBYGD,TRS
9336,RUNDHAUG,TRS
9350,SJØVEGAN,TRS
9355,SJØVEGAN,TRS
9357,TENNEVOLL,TRS
9358,TENNEVOLL,TRS
9360,BARDU,TRS
9365,BARDU,TRS
9370,SILSAND,TRS
9372,GIBOSTAD,TRS
9373,BOTNHAMN,TRS
9376,SKATVIK,TRS
9379,GRYLLEFJORD,TRS
9380,GRYLLEFJORD,TRS
9381,TORSKEN,TRS
9382,GIBOSTAD,TRS
9384,SKALAND,TRS
9385,SKALAND,TRS
9386,SENJAHOPEN,TRS
9387,SENJAHOPEN,TRS
9388,FJORDGARD,TRS
9389,HUSØY I SENJA,TRS
9391,STONGLANDSEIDET,TRS
9392,STONGLANDSEIDET,TRS
9393,FLAKSTADVÅG,TRS
9395,KALDFARNES,TRS
9402,HARSTAD,TRS
9403,HARSTAD,TRS
9404,HARSTAD,TRS
9405,HARSTAD,TRS
9406,HARSTAD,TRS
9407,HARSTAD,TRS
9408,HARSTAD,TRS
9409,HARSTAD,TRS
9411,HARSTAD,TRS
9414,HARSTAD,TRS
9415,HARSTAD,TRS
9416,HARSTAD,TRS
9419,SØRVIK,TRS
9420,LUNDENES,TRS
9423,GRØTAVÆR,TRS
9424,KJØTTA,TRS
9425,SANDSØY,TRS
9426,BJARKØY,TRS
9427,MELØYVÆR,TRS
9430,SANDTORG,TRS
9436,KONGSVIK,TRS
9439,EVENSKJER,TRS
9440,EVENSKJER,TRS
9441,FJELLDAL,TRS
9442,RAMSUND,TRS
9443,MYKLEBOSTAD,TRS
9444,HOL I TJELDSUND,TRS
9445,TOVIK,TRS
9446,GROVFJORD,TRS
9447,GROVFJORD,TRS
9448,RAMSUND,TRS
9450,HAMNVIK,TRS
9451,HAMNVIK,TRS
9453,KRÅKRØHAMN,TRS
9454,ÅNSTAD,TRS
9455,ENGENES,TRS
9456,ENGENES,TRS
9470,GRATANGEN,TRS
9471,GRATANGEN,TRS
9475,BORKENES,TRS
9476,BORKENES,TRS
9479,HARSTAD,TRS
9480,HARSTAD,TRS
9481,HARSTAD,TRS
9482,HARSTAD,TRS
9483,HARSTAD,TRS
9484,HARSTAD,TRS
9485,HARSTAD,TRS
9486,HARSTAD,TRS
9487,HARSTAD,TRS
9488,HARSTAD,TRS
9489,HARSTAD,TRS
9496,HARSTAD,TRS
9497,HARSTAD,TRS
9498,HARSTAD,TRS
9501,ALTA,FM
9502,ALTA,FM
9503,ALTA,FM
9504,ALTA,FM
9505,ALTA,FM
9506,ALTA,FM
9507,ALTA,FM
9508,ALTA,FM
9509,ALTA,FM
9510,ALTA,FM
9511,ALTA,FM
9512,ALTA,FM
9513,ALTA,FM
9514,ALTA,FM
9515,ALTA,FM
9516,ALTA,FM
9517,ALTA,FM
9518,ALTA,FM
9519,KVIBY,FM
9520,KAUTOKEINO,FM
9521,KAUTOKEINO,FM
9522,KAUTOKEINO,FM
9523,KAUTOKEINO,FM
9524,KAUTOKEINO,FM
9525,MAZE,FM
9527,KAUTOKEINO,FM
9528,KAUTOKEINO,FM
9529,KAUTOKEINO,FM
9531,KVALFJORD,FM
9532,HAKKSTABBEN,FM
9533,KONGSHUS,FM
9536,KORSFJORDEN,FM
9537,TVERRELVDALEN,FM
9538,ALTA,FM
9540,TALVIK,FM
9541,ALTA,FM
9545,LANGFJORDBOTN,FM
9550,ØKSFJORD,FM
9552,ØKSFJORDEN,FM
9580,BERGSFJORD,FM
9582,NUVSVÅG,FM
9583,LANGFJORDHAMN,FM
9584,SØR-TVERRFJORD,FM
9585,SANDLAND,FM
9586,LOPPA,FM
9587,SKAVNAKK,FM
9590,HASVIK,FM
9591,HASVIK,FM
9593,BREIVIKBOTN,FM
9595,SØRVÆR,FM
9600,HAMMERFEST,FM
9601,HAMMERFEST,FM
9602,HAMMERFEST,FM
9603,HAMMERFEST,FM
9609,NORDRE SEILAND,FM
9610,RYPEFJORD,FM
9611,RYPEFJORD,FM
9612,FORSØL,FM
9615,HAMMERFEST,FM
9616,HAMMERFEST,FM
9620,KVALSUND,FM
9621,KVALSUND,FM
9624,REVSNESHAMN,FM
9650,AKKARFJORD,FM
9651,LANGSTRAND,FM
9657,KÅRHAMN,FM
9664,SANDØYBOTN,FM
9670,TUFJORD,FM
9672,INGØY,FM
9690,HAVØYSUND,FM
9691,HAVØYSUND,FM
9692,MÅSØY,FM
9700,LAKSELV,FM
9709,PORSANGMOEN,FM
9710,INDRE BILLEFJORD,FM
9711,LAKSELV,FM
9712,LAKSELV,FM
9713,RUSSENES,FM
9714,SNEFJORD,FM
9715,KOKELV,FM
9716,BØRSELV,FM
9717,VEIDNES,FM
9722,SKOGANVARRE,FM
9730,KARASJOK,FM
9731,KARASJOK,FM
9732,KARASJOK,FM
9733,KARASJOK,FM
9734,KARASJOK,FM
9735,KARASJOK,FM
9736,KARASJOK,FM
9737,KARASJOK,FM
9740,LEBESBY,FM
9742,KUNES,FM
9750,HONNINGSVÅG,FM
9751,HONNINGSVÅG,FM
9760,NORDVÅGEN,FM
9762,KAMØYVÆR,FM
9763,SKARSVÅG,FM
9764,NORDKAPP,FM
9765,GJESVÆR,FM
9766,SARNES,FM
9768,REPVÅG,FM
9770,MEHAMN,FM
9771,SKJÅNES,FM
9772,LANGFJORDNES,FM
9773,NERVEI,FM
9775,GAMVIK,FM
9782,DYFJORD,FM
9790,KJØLLEFJORD,FM
9800,VADSØ,FM
9801,VADSØ,FM
9802,VESTRE JAKOBSELV,FM
9803,VADSØ,FM
9804,VADSØ,FM
9810,VESTRE JAKOBSELV,FM
9811,VADSØ,FM
9815,VADSØ,FM
9820,VARANGERBOTN,FM
9826,SIRMA,FM
9840,VARANGERBOTN,FM
9841,TANA,FM
9842,TANA,FM
9843,TANA,FM
9844,TANA,FM
9845,TANA,FM
9846,TANA,FM
9900,KIRKENES,FM
9901,KIRKENES,FM
9910,BJØRNEVATN,FM
9911,JARFJORD,FM
9912,HESSENG,FM
9914,BJØRNEVATN,FM
9915,KIRKENES,FM
9916,HESSENG,FM
9917,KIRKENES,FM
9925,SVANVIK,FM
9926,PASVIK,FM
9930,NEIDEN,FM
9935,BUGØYNES,FM
9950,VARDØ,FM
9951,VARDØ,FM
9952,VARDØ,FM
9955,SVARTNES,FM
9960,KIBERG,FM
9980,BERLEVÅG,FM
9981,BERLEVÅG,FM
9982,KONGSFJORD,FM
9990,BÅTSFJORD,FM
9991,BÅTSFJORD,FM
